Address of the Book Box,Latitude,Longitude,Title of the Book,Name of the First Author or Publisher,Book URL,Image Link
Guldensporenlaan 47,50.883296,4.7389162,Avonturen in dierenwonderland,Hetty van Vugt,https://www.bol.com/be/nl/p/avonturen-in-dierenwonderland/1001004001513380/,img/Guldensporenlaan 47.jpg
Guldensporenlaan 47,50.883296,4.7389162,1-Minuutverhaaltjes Voor Jonge Lezers,Hetty van Vugt,https://www.bol.com/be/nl/p/1-minuutverhaaltjes-voor-jonge-lezers/1001004000061630/,img/Guldensporenlaan 47.jpg
Guldensporenlaan 47,50.883296,4.7389162,Berckmans' Biotoop Deel 1: Alles wel in Kromsky's hel,Jean-Marie Henri Berckmans,No link found,img/Guldensporenlaan 47.jpg
Guldensporenlaan 47,50.883296,4.7389162,Menselijke anatomie,Benjamin A. Rifkin,https://www.bol.com/be/nl/p/human-anatomy/1001004010909317/,img/Guldensporenlaan 47.jpg
Guldensporenlaan 47,50.883296,4.7389162,Speelfilm Encyclopedie,Carlos Aguilar,No link found,img/Guldensporenlaan 47.jpg
Guldensporenlaan 47,50.883296,4.7389162,Book Design 2,B. Martin Pedersen,https://www.bol.com/be/nl/p/t-shirt-design-2/1001004001202353/,img/Guldensporenlaan 47.jpg
Guldensporenlaan 47,50.883296,4.7389162,Koken Met Kip,J. Ferguson,https://www.bol.com/be/nl/p/koken-met-kip/1001004001530617/,img/Guldensporenlaan 47.jpg
Guldensporenlaan 47,50.883296,4.7389162,Het Grote Boek Met Vis & Zeevruchten,Jody Vassallo,No link found,img/Guldensporenlaan 47.jpg
Guldensporenlaan 47,50.883296,4.7389162,Smossen Mag,Roger van Damme,https://www.bol.com/be/nl/p/boek-njam-smossen-mag/9200000010704113/,img/Guldensporenlaan 47.jpg
Guldensporenlaan 47,50.883296,4.7389162,Alarm op Spitsbergen,Dixie Dansercoer,No link found,img/Guldensporenlaan 47.jpg
Guldensporenlaan 47,50.883296,4.7389162,A Game of Thrones,George R.R. Martin,https://www.bol.com/be/nl/p/a-song-of-ice-and-fire-george-r-r-martin-s-a-game-of-thrones-5-book-boxed-set/9200000017835424/,img/Guldensporenlaan 47.jpg
Guldensporenlaan 47,50.883296,4.7389162,De kunst om in koor te huilen,Erling Jepsen,https://www.bol.com/be/nl/p/de-kunst-om-in-koor-te-huilen/1001004006539287/,img/Guldensporenlaan 47.jpg
Guldensporenlaan 47,50.883296,4.7389162,All My Sons,Arthur Miller,https://www.bol.com/be/nl/p/all-my-sons/1001004005040855/,img/Guldensporenlaan 47.jpg
Guldensporenlaan 47,50.883296,4.7389162,Als Moeder,Colum McCann,https://www.bol.com/be/nl/p/als-moeder/9300000152015753/,img/Guldensporenlaan 47.jpg
Guldensporenlaan 47,50.883296,4.7389162,Kroatisch,Wat & Hoe,https://www.bol.com/be/nl/p/wat-hoe-taalgids-kroatisch/9300000129969157/,img/Guldensporenlaan 47.jpg
Guldensporenlaan 47,50.883296,4.7389162,Tsjechisch,Wat & Hoe,https://www.bol.com/be/nl/p/wat-hoe-taalgids-tsjechisch/9300000129969195/,img/Guldensporenlaan 47.jpg
Guldensporenlaan 47,50.883296,4.7389162,Stadslucht Maakt Vrij,Sven Gatz,https://www.bol.com/be/nl/p/vitale-steden/9200000049016423/,img/Guldensporenlaan 47.jpg
Guldensporenlaan 47,50.883296,4.7389162,Tanja en Douwe verliefd,Nanda Roep,https://www.bol.com/be/nl/p/tanja-en-douwe-verliefd/9200000059921567/,img/Guldensporenlaan 47.jpg
Guldensporenlaan 47,50.883296,4.7389162,Operatie mammoet,Gert Boullart,No link found,img/Guldensporenlaan 47.jpg
Guldensporenlaan 47,50.883296,4.7389162,Reiziger van lichte zeden,Jef Rademakers,https://www.bol.com/be/nl/p/reiziger-van-lichte-zeden/1001004001634824/,img/Guldensporenlaan 47.jpg
Guldensporenlaan 47,50.883296,4.7389162,Music of the Heart,Roberta Guaspari-Tzavaras,https://www.bol.com/be/nl/p/music-of-the-heart/1001004001280016/,img/Guldensporenlaan 47.jpg
Guldensporenlaan 47,50.883296,4.7389162,Tylers Oorlog,Gavin Lyall,https://www.bol.com/be/nl/p/tylers-oorlog/1001004005100491/,img/Guldensporenlaan 47.jpg
Guldensporenlaan 47,50.883296,4.7389162,Zes onder zeil,Mieke Vanpol,No link found,img/Guldensporenlaan 47.jpg
Guldensporenlaan 47,50.883296,4.7389162,Over Agressie,Konrad Lorenz,https://www.bol.com/be/nl/p/agressie-bij-dier-en-mens/1001004001514969/,img/Guldensporenlaan 47.jpg
Guldensporenlaan 47,50.883296,4.7389162,Fahrenheit 451,Ray Bradbury,https://www.bol.com/be/nl/p/fahrenheit-451/1001004001207520/,img/Guldensporenlaan 47.jpg
Guldensporenlaan 47,50.883296,4.7389162,Broedermoord,Tim Heald,https://www.bol.com/be/nl/p/princess-margaret/1001004005996469/,img/Guldensporenlaan 47.jpg
Guldensporenlaan 47,50.883296,4.7389162,Daar ligt een hond begraven,Tim Heald,No link found,img/Guldensporenlaan 47.jpg
Schoolstraat 2,50.875684,4.7272217,"Rotstuinen: idee?n, mogelijkheden, constructies",Wiert Nieuman,No link found,img/Schoolstraat 2.jpg
Schoolstraat 2,50.875684,4.7272217,"40x Vis: Gemakkelijk en gezond, verrassend gevarieerd",Roularta Media Group,No link found,img/Schoolstraat 2.jpg
Schoolstraat 2,50.875684,4.7272217,Noten leer Boek,Luc de Smet,No link found,img/Schoolstraat 2.jpg
Schoolstraat 2,50.875684,4.7272217,Waterdieren. Kinderen Ontdekken.,C. Berry,https://www.bol.com/be/nl/p/waterdieren-kinderen-ontdekken/666808162/,img/Schoolstraat 2.jpg
Schoolstraat 2,50.875684,4.7272217,De School Van Schellebelle,Gertie Evemhuis,https://www.bol.com/be/nl/p/de-school-van-schellebelle/9200000048367541/,img/Schoolstraat 2.jpg
Schoolstraat 2,50.875684,4.7272217,Comment d¨¦jouer les pi¨¨ges de l'information: Ou les r¨¨gles d'or de la z¨¦t¨¦tique,Henri Broch,No link found,img/Schoolstraat 2.jpg
Schoolstraat 2,50.875684,4.7272217,Mijn hart is niet hier,Jeanne van de Putte,No link found,img/Schoolstraat 2.jpg
Schoolstraat 2,50.875684,4.7272217,De ruk aan de tralies,Jeanne van de Putte,No link found,img/Schoolstraat 2.jpg
Schoolstraat 2,50.875684,4.7272217, Zoo hard en zoo schoon,Jeanne van de Putte,No link found,img/Schoolstraat 2.jpg
Schoolstraat 2,50.875684,4.7272217,Moord en sc¨¨ne,Ellery Queen,No link found,img/Schoolstraat 2.jpg
Schoolstraat 2,50.875684,4.7272217,Uit het juiste hout,Billie Douglas,No link found,img/Schoolstraat 2.jpg
Schoolstraat 2,50.875684,4.7272217,Amour et honneur,Richard de Boeck,No link found,img/Schoolstraat 2.jpg
Schoolstraat 2,50.875684,4.7272217,Madame Orpha,Marie Gevers,https://www.bol.com/be/nl/p/madame-orpha/9300000173196335/,img/Schoolstraat 2.jpg
Schoolstraat 2,50.875684,4.7272217,The Ambassadors Women,Catherine Gaskin,No link found,img/Schoolstraat 2.jpg
Schoolstraat 2,50.875684,4.7272217,Het verleden herleeft,Hedwig Courths-Mahler,No link found,img/Schoolstraat 2.jpg
Schoolstraat 2,50.875684,4.7272217,Maja's huwelijk,Hedwig Courths-Mahler,No link found,img/Schoolstraat 2.jpg
Schoolstraat 2,50.875684,4.7272217,Het circus,Lucee-Andree Lagarde,No link found,img/Schoolstraat 2.jpg
Schoolstraat 2,50.875684,4.7272217,Mechanika teoretyczna,Rubinowicz Wojciech,No link found,img/Schoolstraat 2.jpg
Schoolstraat 2,50.875684,4.7272217,Emily's Runaway Imagination ,Beverly Cleary,https://www.bol.com/be/nl/p/emily-s-runaway-imagination/1001004000806826/,img/Schoolstraat 2.jpg
Schoolstraat 2,50.875684,4.7272217,Toch een vader,Michelle Magorian,No link found,img/Schoolstraat 2.jpg
Schoolstraat 2,50.875684,4.7272217,Tot Stof Vergaan,Tami Hoag,https://www.bol.com/be/nl/p/tot-stof-vergaan-tami-hoag/1001004002092257/,img/Schoolstraat 2.jpg
Schoolstraat 2,50.875684,4.7272217,Gehugen van steen,Kirstin Vanlierde,https://www.bol.com/be/nl/p/geheugen-van-steen/1001004002620707/,img/Schoolstraat 2.jpg
Schoolstraat 2,50.875684,4.7272217,Wielen,Arthur Hailey,https://www.bol.com/be/nl/p/wielen/9300000139835982/,img/Schoolstraat 2.jpg
Schoolstraat 2,50.875684,4.7272217,Tan Lines,J.J Salem,https://www.bol.com/be/nl/p/tan-lines/9200000020062652/,img/Schoolstraat 2.jpg
Schoolstraat 2,50.875684,4.7272217,The Laughing Policeman,Maj Sj?wall,No link found,img/Schoolstraat 2.jpg
Schoolstraat 2,50.875684,4.7272217,Une chandelle dans les tenebres,Henri Broch,No link found,img/Schoolstraat 2.jpg
Schoolstraat 2,50.875684,4.7272217,Blitz,Robert Westall,https://www.bol.com/be/nl/p/blitz/1001004001062851/,img/Schoolstraat 2.jpg
Elfnovemberlaan 49,50.885737,4.7260617,El Vendedor mas Grande del Mundo/Segunda Parte,OG Mandino,No link found,img/Elfnovemberlaan 49.jpg
Elfnovemberlaan 49,50.885737,4.7260617,Chinese Handwassing,Anton Roothaert,No link found,img/Elfnovemberlaan 49.jpg
Elfnovemberlaan 49,50.885737,4.7260617,Englische Kurzzgeschichten /English Short Stories,Aldous Huxley,No link found,img/Elfnovemberlaan 49.jpg
Elfnovemberlaan 49,50.885737,4.7260617,Argentinische Kurzgeschichten / Narradores Argentinos,Antonio Di Bendetto,No link found,img/Elfnovemberlaan 49.jpg
Elfnovemberlaan 49,50.885737,4.7260617,Cakes and Ale,William Somerset Maugham,https://www.bol.com/be/nl/p/great/9300000080684782/,img/Elfnovemberlaan 49.jpg
Elfnovemberlaan 49,50.885737,4.7260617,Het Beste Boek 101,James Houston,No link found,img/Elfnovemberlaan 49.jpg
Elfnovemberlaan 49,50.885737,4.7260617,The French Lieutenants Woman,John Fowles,https://www.bol.com/be/nl/p/the-french-lieutenant-s-woman/9200000000761626/,img/Elfnovemberlaan 49.jpg
Elfnovemberlaan 49,50.885737,4.7260617,Der Hahn ist Tot,Ingrid Noll,https://www.bol.com/be/nl/p/der-hahn-ist-tot-grossdruck/1001004008775604/,img/Elfnovemberlaan 49.jpg
Elfnovemberlaan 49,50.885737,4.7260617,De Open Plek: Over Franstalige Literatuur Uit de Antillen,Maryse Cond¨¦ ,No link found,img/Elfnovemberlaan 49.jpg
Elfnovemberlaan 49,50.885737,4.7260617,Het Beste Boek 86,Ira Avery,No link found,img/Elfnovemberlaan 49.jpg
Elfnovemberlaan 49,50.885737,4.7260617,Het Beste Boek 119,Lilian Beckwith,No link found,img/Elfnovemberlaan 49.jpg
Elfnovemberlaan 49,50.885737,4.7260617,Een tafel voor vijf!,Riet Wille,https://www.bol.com/be/nl/p/een-huis-met-een-naam/666830852/,img/Elfnovemberlaan 49.jpg
Patroonschapstraat 7,50.884924,4.7237778,"Adieu, An Claude",Utta Danella,https://www.bol.com/be/nl/p/adieu-jean-claude/9200000049530358/,img/Patroonschapstraat 7.jpg
Patroonschapstraat 7,50.884924,4.7237778,In vrije val,JoAnn Kelley Smith,No link found,img/Patroonschapstraat 7.jpg
Patroonschapstraat 7,50.884924,4.7237778,Zoete Wraak,Jacke Collins,https://www.bol.com/be/nl/p/zilver-pockets-zoete-wraak/1001004007508159/,img/Patroonschapstraat 7.jpg
Patroonschapstraat 7,50.884924,4.7237778,G?ttinnen und Priesterinnen,Regina Sommer,No link found,img/Patroonschapstraat 7.jpg
Patroonschapstraat 7,50.884924,4.7237778,500 years of Reformation: tensions between mission and culture (2017),Sabine Dievenkorn,No link found,img/Patroonschapstraat 7.jpg
Patroonschapstraat 7,50.884924,4.7237778,Mindhunter,John Douglas,https://www.bol.com/be/nl/p/mindhunter/9200000081572919/,img/Patroonschapstraat 7.jpg
Patroonschapstraat 7,50.884924,4.7237778,Feminist Theology and Visual Arts (2011),Annette Esser,No link found,img/Patroonschapstraat 7.jpg
Patroonschapstraat 7,50.884924,4.7237778,"Feminist Theology: Listening, Understanding and Responding in a Secular and Plural World",Uta Blohm,No link found,img/Patroonschapstraat 7.jpg
Patroonschapstraat 7,50.884924,4.7237778,Nienke van de Zandhoe,Willy van Roode,https://www.bol.com/be/nl/p/nienke-van-de-zandhoeve/1001004005106072/,img/Patroonschapstraat 7.jpg
Patroonschapstraat 7,50.884924,4.7237778,Zestic Spiegels,Harm de Jonge,https://www.bol.com/be/nl/p/zestig-spiegels-kinderboekenweekgeschenk-2014/9200000032084735/,img/Patroonschapstraat 7.jpg
Patroonschapstraat 7,50.884924,4.7237778,Kochaj wystarczaj?co dobrze,Jucewicz Agnieszka,No link found,img/Patroonschapstraat 7.jpg
Patroonschapstraat 7,50.884924,4.7237778,Het nieuw medisch gezindsboek,Gerhard Venzmer,https://www.bol.com/be/nl/p/het-nieuw-medisch-gezindsboek-dr-gerhard-venzmer/9200000049523989/,img/Patroonschapstraat 7.jpg
Leopold Ruelensstraat 26,50.890673,4.7262615,Paper Towns,John Green,https://www.bol.com/be/nl/p/paper-towns/9200000018043619/,img/Leopold Ruelensstraat 26.jpg
Leopold Ruelensstraat 26,50.890673,4.7262615,Midnight Thief,Livia Blackburne,https://www.bol.com/be/nl/p/midnight-thief/9200000037399188/,img/Leopold Ruelensstraat 26.jpg
Leopold Ruelensstraat 26,50.890673,4.7262615,Rebel Belle,Rachel Hawkins,https://www.bol.com/be/nl/p/lady-renegades/9200000062413353/,img/Leopold Ruelensstraat 26.jpg
Leopold Ruelensstraat 26,50.890673,4.7262615,Ik Overleefde voor Mijn Kind,Clara Rojas,https://www.bol.com/be/nl/p/ik-overleefde-voor-mijn-kind/1001004008570336/,img/Leopold Ruelensstraat 26.jpg
Leopold Ruelensstraat 26,50.890673,4.7262615,Peru Handbook,Alan Murphy,https://www.bol.com/be/nl/p/peru-handbook/9200000070127562/,img/Leopold Ruelensstraat 26.jpg
Leopold Ruelensstraat 26,50.890673,4.7262615,Suriname in het hart,Diederik Samwel,https://www.bol.com/be/nl/p/suriname-in-het-hart/1001004010968608/,img/Leopold Ruelensstraat 26.jpg
Leopold Ruelensstraat 26,50.890673,4.7262615,Twilight,Stephenie Meyer,https://www.bol.com/be/nl/p/twilight-midnight-sun/9300000002415414/,img/Leopold Ruelensstraat 26.jpg
Leopold Ruelensstraat 26,50.890673,4.7262615,Monsoon,Wilbur Smith,https://www.bol.com/be/nl/p/monsoon/9200000090077539/,img/Leopold Ruelensstraat 26.jpg
Leopold Ruelensstraat 26,50.890673,4.7262615,Star Trek: Myriad Universes,David R. George III,https://www.bol.com/be/nl/p/star-trek-the-next-generation-3-star-trek-myriad-universes-3-shattered-light/9200000017871551/,img/Leopold Ruelensstraat 26.jpg
Leopold Ruelensstraat 26,50.890673,4.7262615,Cress,Marissa Meyer,https://www.bol.com/be/nl/p/the-lunar-chronicles-boxed-set/9200000132739212/,img/Leopold Ruelensstraat 26.jpg
Leopold Ruelensstraat 26,50.890673,4.7262615,Rage,Wilbur Smith,https://www.bol.com/be/nl/p/rage/9200000090078959/,img/Leopold Ruelensstraat 26.jpg
Leopold Ruelensstraat 26,50.890673,4.7262615,Cry Wolf,Wilbur Smith,https://www.bol.com/be/nl/p/sound-of-thunder-cry-wolf-duo/1001004006077435/,img/Leopold Ruelensstraat 26.jpg
Leopold Ruelensstraat 26,50.890673,4.7262615,The Icarus Agenda,Robert Ludlum,https://www.bol.com/be/nl/p/the-icarus-agenda/1001004000968283/,img/Leopold Ruelensstraat 26.jpg
Leopold Ruelensstraat 26,50.890673,4.7262615,Niemand komt aan mijn kinderen,Donya Al-Hahi,No link found,img/Leopold Ruelensstraat 26.jpg
Leopold Ruelensstraat 26,50.890673,4.7262615,Bikkel,Rudie Kagie,https://www.bol.com/be/nl/p/bikkel/9200000010155753/,img/Leopold Ruelensstraat 26.jpg
Albrecht Rodenbachstraat 55,50.890636,4.7240621,Introduction to Social Work,O. William Farley,https://www.bol.com/be/nl/p/introduction-to-social-work/1001004011422524/,img/Albrecht Rodenbachstraat 55.jpg
Albrecht Rodenbachstraat 55,50.890636,4.7240621,De hartstocht en het verlangen,Rosemary Rogers,https://www.bol.com/be/nl/p/hartstocht-en-het-verlangen/1001004005096212/,img/Albrecht Rodenbachstraat 55.jpg
Albrecht Rodenbachstraat 55,50.890636,4.7240621,The Desire of Ages,Ellen G. White,https://www.bol.com/be/nl/p/ellen-g-white-books-on-salvation-christ-in-his-sanctuary/9300000049966386/,img/Albrecht Rodenbachstraat 55.jpg
Albrecht Rodenbachstraat 55,50.890636,4.7240621,The Long Arm of Gil Hamilton,Larry Niven,https://www.bol.com/be/nl/p/the-long-arm-of-gil-hamilton/1001004006109781/,img/Albrecht Rodenbachstraat 55.jpg
Albrecht Rodenbachstraat 55,50.890636,4.7240621,May day : young literature from the ten new member states of the European Union.,European Commission,No link found,img/Albrecht Rodenbachstraat 55.jpg
Albrecht Rodenbachstraat 55,50.890636,4.7240621,Het Beste Boek 208,Maeve Binchy,No link found,img/Albrecht Rodenbachstraat 55.jpg
Albrecht Rodenbachstraat 55,50.890636,4.7240621,Gevierendeeld,Daisy ver Boven,https://www.bol.com/be/nl/p/gevierendeeld/1001004005090059/,img/Albrecht Rodenbachstraat 55.jpg
Albrecht Rodenbachstraat 55,50.890636,4.7240621,GVB Regelexamen,Nederlandse Golf Federatie,https://www.bol.com/be/nl/p/golfregels/9300000138967603/,img/Albrecht Rodenbachstraat 55.jpg
Albrecht Rodenbachstraat 55,50.890636,4.7240621,Alleen maar voetbal,Kirsten Boie,https://www.bol.com/be/nl/p/lena-wil-alleen-maar-voetbal/1001004001573469/,img/Albrecht Rodenbachstraat 55.jpg
Albrecht Rodenbachstraat 55,50.890636,4.7240621,Mijn mama is een cowboy,Boonen Stefan,https://www.bol.com/be/nl/p/mijn-mama-is-een-cowboy-boonen-stefan/9300000017409223/,img/Albrecht Rodenbachstraat 55.jpg
Albrecht Rodenbachstraat 55,50.890636,4.7240621,Brandpost 5,Jack Olsen,https://www.bol.com/be/nl/p/brandpost-5/1001004005086200/,img/Albrecht Rodenbachstraat 55.jpg
Albrecht Rodenbachstraat 55,50.890636,4.7240621,Shimmer & Shine: Omnibus met 3 verhalen!,Big Balloon,https://www.bol.com/be/nl/p/shimmer-shine-omnibus/9200000082256543/,img/Albrecht Rodenbachstraat 55.jpg
Albrecht Rodenbachstraat 55,50.890636,4.7240621,Buitenspel,Vivian den Hollander,https://www.bol.com/be/nl/p/buitenspel/9200000048381159/,img/Albrecht Rodenbachstraat 55.jpg
Albrecht Rodenbachstraat 55,50.890636,4.7240621,Aan tafel in Frankrijk,Georgeanne Brennan,https://www.bol.com/be/nl/p/de-smaak-van-de-provence/1001004005448947/,img/Albrecht Rodenbachstraat 55.jpg
Albrecht Rodenbachstraat 55,50.890636,4.7240621,De Heggenrijder,Jan de Zutter,https://www.bol.com/be/nl/p/de-heggenrijder/1001004001807671/,img/Albrecht Rodenbachstraat 55.jpg
Albrecht Rodenbachstraat 55,50.890636,4.7240621,Het Bezoek,Adrian Plass,https://www.bol.com/be/nl/p/het-bezoek/666806844/,img/Albrecht Rodenbachstraat 55.jpg
Albrecht Rodenbachstraat 55,50.890636,4.7240621,Brieven aan Miriam,Lutgard Van Heuckelom,https://www.bol.com/be/nl/p/brieven-aan-miriam/1001004001521215/,img/Albrecht Rodenbachstraat 55.jpg
Albrecht Rodenbachstraat 55,50.890636,4.7240621,A New Man: Missionary Journeys of an African American,Hoise Birks,No link found,img/Albrecht Rodenbachstraat 55.jpg
Albrecht Rodenbachstraat 55,50.890636,4.7240621,Literatuur en radio,Birgit van Puymbroeck,No link found,img/Albrecht Rodenbachstraat 55.jpg
Albrecht Rodenbachstraat 55,50.890636,4.7240621,Eekhoorns sneeuwpop,Julia Donaldson,https://www.bol.com/be/nl/p/eekhoorns-sneeuwpop/9300000042356529/,img/Albrecht Rodenbachstraat 55.jpg
Albrecht Rodenbachstraat 55,50.890636,4.7240621,Kronkels,Inge Misschaert,https://www.bol.com/be/nl/p/verzameld/9300000153390325/,img/Albrecht Rodenbachstraat 55.jpg
Albrecht Rodenbachstraat 55,50.890636,4.7240621,Jeugdpsychologie: Hebben onze jongens en meisjes vertouwen in vader en moeder,J. Vlerick,No link found,img/Albrecht Rodenbachstraat 55.jpg
Albrecht Rodenbachstraat 55,50.890636,4.7240621,De Enige Weg,Ellen G. White,https://www.bol.com/be/nl/p/de-enige-weg-ellen-g-white/9200000084900556/,img/Albrecht Rodenbachstraat 55.jpg
Albrecht Rodenbachstraat 55,50.890636,4.7240621,"Kijk, mijn Bijbel!",Bethan James,https://www.bol.com/be/nl/p/kijk-mijn-bijbel/9200000001045770/,img/Albrecht Rodenbachstraat 55.jpg
Albrecht Rodenbachstraat 55,50.890636,4.7240621,Act of Will,Barbara Taylor Bradford,https://www.bol.com/be/nl/p/act-of-will/9200000015442322/,img/Albrecht Rodenbachstraat 55.jpg
Albrecht Rodenbachstraat 55,50.890636,4.7240621,38 Basic Joseki,Kiyoshi Kosugi,https://www.bol.com/be/nl/p/elementary-go-38-basic-josekis/1001004000775935/,img/Albrecht Rodenbachstraat 55.jpg
Albrecht Rodenbachstraat 55,50.890636,4.7240621,Glimwormen een kortverhaal,Marjolijn van Heemstra,No link found,img/Albrecht Rodenbachstraat 55.jpg
Albrecht Rodenbachstraat 55,50.890636,4.7240621,In the Blink of an Eye: A Perspective on Film Editing,Walter Murch,https://www.bol.com/be/nl/p/in-the-blink-of-an-eye-a-perspective-on-film-editing-2nd-edition/9300000165638748/,img/Albrecht Rodenbachstraat 55.jpg
Gemeenteplein 33,50.890501,4.7295043,The Janson Directive,Robert Ludlum,https://www.bol.com/be/nl/p/janson-directive/1001004007155400/,img/Gemeenteplein 33.jpg
Gemeenteplein 33,50.890501,4.7295043,Others,James Herbert,https://www.bol.com/be/nl/p/stars/1001004000795259/,img/Gemeenteplein 33.jpg
Gemeenteplein 33,50.890501,4.7295043,"Cry, The Beloved Country",Alan Paton,https://www.bol.com/be/nl/p/cry-the-beloved-country/1001004001648872/,img/Gemeenteplein 33.jpg
Gemeenteplein 33,50.890501,4.7295043,Green River Rising,Tim Willocks,https://www.bol.com/be/nl/p/green-river-rising/1001004001090513/,img/Gemeenteplein 33.jpg
Gemeenteplein 33,50.890501,4.7295043,More Twisted,Jeffert Deaver,https://www.bol.com/be/nl/p/more-twisted/9200000060301915/,img/Gemeenteplein 33.jpg
Gemeenteplein 33,50.890501,4.7295043,The Geography of Bliss,Eric Weiner,https://www.bol.com/be/nl/p/the-geography-of-bliss/9200000070676298/,img/Gemeenteplein 33.jpg
Gemeenteplein 33,50.890501,4.7295043,De Standaard stijlboek : een hulpkit van de De Standaard,Astrid Houthuys,No link found,img/Gemeenteplein 33.jpg
Gemeenteplein 33,50.890501,4.7295043,L'Univers de Th¨¦odore Rousseau,Antoine Terrasse,No link found,img/Gemeenteplein 33.jpg
Gemeenteplein 33,50.890501,4.7295043,L'Univers de Jongkind,Victorine Hefting,No link found,img/Gemeenteplein 33.jpg
Gemeenteplein 33,50.890501,4.7295043,L'Univers de Millet,Jean-Jacques L¨¦vaque ,No link found,img/Gemeenteplein 33.jpg
Gemeenteplein 33,50.890501,4.7295043,Polynesie et Micronesie,Gis¨¨le Toulouzan,No link found,img/Gemeenteplein 33.jpg
Gemeenteplein 33,50.890501,4.7295043,Monet,Daniel Wildenstein,https://www.bol.com/be/nl/p/monet-the-triumph-of-impressionism/9200000021964885/,img/Gemeenteplein 33.jpg
Gemeenteplein 33,50.890501,4.7295043,Turner,Robin Hamlyn,https://www.bol.com/be/nl/p/turner/9200000048196521/,img/Gemeenteplein 33.jpg
Gemeenteplein 33,50.890501,4.7295043,Monet,Yvon Taillandier,https://www.bol.com/be/nl/p/monet/9200000069568240/,img/Gemeenteplein 33.jpg
Gemeenteplein 33,50.890501,4.7295043,Vergangenheit in der Gegenwart,P¨¦ter Korniss,No link found,img/Gemeenteplein 33.jpg
Gemeenteplein 33,50.890501,4.7295043,Manet,John Richardson,https://www.bol.com/be/nl/p/manet/1001004001203001/,img/Gemeenteplein 33.jpg
Gemeenteplein 33,50.890501,4.7295043,Impressionism ,Ren¨¦ Huyghe,No link found,img/Gemeenteplein 33.jpg
Gemeenteplein 33,50.890501,4.7295043,Gesellschaftsrecht,Christine Windbichler,https://www.bol.com/be/nl/p/gesellschaftsrecht/1001004008972516/,img/Gemeenteplein 33.jpg
Gemeenteplein 33,50.890501,4.7295043,Neue Dekorputze und Effektfarben f¨¹r kreative Wandgestaltung,Hans W. Bastian,No link found,img/Gemeenteplein 33.jpg
Gemeenteplein 33,50.890501,4.7295043,Treasure of Khan,Clive Cussler,https://www.bol.com/be/nl/p/treasure-of-khan/1001004011616546/,img/Gemeenteplein 33.jpg
Gemeenteplein 33,50.890501,4.7295043,Het monster uit de diepte,Patrick Lagrou,https://www.bol.com/be/nl/p/dolfijnenkind-2-het-monster-uit-de-diepte/1001004005487649/,img/Gemeenteplein 33.jpg
Holsbeeksesteenweg 82,50.896913,4.7315696,Liefdesbrief in viervoud,Elizabeth Cadell,No link found,img/Holsbeeksesteenweg 82.jpg
Holsbeeksesteenweg 82,50.896913,4.7315696,Het verhaal van de griezel en de raadselachtige verdwijningen,Rien Broere,https://www.bol.com/be/nl/p/het-verhaal-van-de-griezel-en-de-raadselachtige-verdwijningen/9300000052581939/,img/Holsbeeksesteenweg 82.jpg
Holsbeeksesteenweg 82,50.896913,4.7315696,Groetjes uit Andromeda,Patrick Bernauw,https://www.bol.com/be/nl/p/groetjes-uit-andromeda/666764950/,img/Holsbeeksesteenweg 82.jpg
Holsbeeksesteenweg 82,50.896913,4.7315696,De gesluierde vrouw,Hedwig Courths-Mahler,No link found,img/Holsbeeksesteenweg 82.jpg
Holsbeeksesteenweg 82,50.896913,4.7315696,Spaans avontuur,Manfred Conte,No link found,img/Holsbeeksesteenweg 82.jpg
Holsbeeksesteenweg 82,50.896913,4.7315696,Satan's World,Poul Anderson,https://www.bol.com/be/nl/p/satan-s-world/9200000029911464/,img/Holsbeeksesteenweg 82.jpg
Holsbeeksesteenweg 82,50.896913,4.7315696,Banco,Henri Charri¨¨re,No link found,img/Holsbeeksesteenweg 82.jpg
Holsbeeksesteenweg 82,50.896913,4.7315696,Santorini,Alistair MacLean,https://www.bol.com/be/nl/p/zr-ms-ulysses-santorini/1001004001510653/,img/Holsbeeksesteenweg 82.jpg
Holsbeeksesteenweg 82,50.896913,4.7315696,Operatie Vanessa,Paul Kustermans,https://www.bol.com/be/nl/p/operatie-vanessa-kustermans/1001004005103496/,img/Holsbeeksesteenweg 82.jpg
Holsbeeksesteenweg 82,50.896913,4.7315696,De gekwelde man,Henning Manell,https://www.bol.com/be/nl/p/inspecteur-wallander-reeks-10-de-gekwelde-man/1001004011794924/,img/Holsbeeksesteenweg 82.jpg
Holsbeeksesteenweg 82,50.896913,4.7315696,Caro,Gaea Schoeters,https://www.bol.com/be/nl/p/trofee/9300000005582506/,img/Holsbeeksesteenweg 82.jpg
Holsbeeksesteenweg 82,50.896913,4.7315696,Romance op woeste grond,Isobel Chace,No link found,img/Holsbeeksesteenweg 82.jpg
Holsbeeksesteenweg 82,50.896913,4.7315696,De Moordenaar Leeft Nog,Rudolf Anderl,No link found,img/Holsbeeksesteenweg 82.jpg
Holsbeeksesteenweg 82,50.896913,4.7315696,Een volmaakte spion,John le Carr¨¦,https://www.bol.com/be/nl/p/een-volmaakte-spion/1001004005135914/,img/Holsbeeksesteenweg 82.jpg
Holsbeeksesteenweg 82,50.896913,4.7315696,Snacks en slaatjes,Carol Bowen,No link found,img/Holsbeeksesteenweg 82.jpg
Holsbeeksesteenweg 82,50.896913,4.7315696,Floortje Bellefleur maakt de schoolkrant,Cok Grashoff,https://www.bol.com/be/nl/p/floortje-bellefleur-door-cok-grashoff-8-boeken-1-floortje-bellefleur-2-in-de-sneeuw-3-maakt-de-schoolkrant-4-wint-een-fiets-5-op-jazzballet-6-in-de-miss-verkiezing-7-in-de-playbackshow-8-op-de-dierenambulance/9300000175034054/,img/Holsbeeksesteenweg 82.jpg
Holsbeeksesteenweg 82,50.896913,4.7315696,Een Man Zet Door,Jan Gerhard Toonder,No link found,img/Holsbeeksesteenweg 82.jpg
Holsbeeksesteenweg 82,50.896913,4.7315696,Waar liefde verdween,Harold Robbins,https://www.bol.com/be/nl/p/de-avonturiers-waar-liefde-verdween/1001004001510533/,img/Holsbeeksesteenweg 82.jpg
Bergstraat 73,50.903539,4.7304565,Guilty ,Laura Elliot,https://www.bol.com/be/nl/p/guilty/9200000091014106/,img/Bergstraat 73.jpg
Bergstraat 73,50.903539,4.7304565,Uitverkoren,Chaim Potok,https://www.bol.com/be/nl/p/uitverkoren/9200000007452442/,img/Bergstraat 73.jpg
Bergstraat 73,50.903539,4.7304565,"L'amour, B¨¦atrice",Janine Boissard,No link found,img/Bergstraat 73.jpg
Bergstraat 73,50.903539,4.7304565,Les Tricheurs,Fran?oise d'Eaubonne,https://www.bol.com/be/nl/p/les-tricheurs/9200000106238954/,img/Bergstraat 73.jpg
Bergstraat 73,50.903539,4.7304565,Noem me Maar Conrad,Roger Zelazny,https://www.bol.com/be/nl/p/noem-me-maar-conrad/1001004005086374/,img/Bergstraat 73.jpg
Bergstraat 73,50.903539,4.7304565,"Collies, Onze Hond Handboek",Zuidgroep,https://www.bol.com/be/nl/p/collies-en-shelties/666776215/,img/Bergstraat 73.jpg
Bergstraat 73,50.903539,4.7304565,Lily Castel,Alex de Teyger,No link found,img/Bergstraat 73.jpg
Bergstraat 73,50.903539,4.7304565,Huis- en tuinrecht,Katrien Helsen,No link found,img/Bergstraat 73.jpg
Bergstraat 73,50.903539,4.7304565,Rust rondom,Ivo Sasek,No link found,img/Bergstraat 73.jpg
Bergstraat 73,50.903539,4.7304565,Davita's Harp,Chaim Potok,https://www.bol.com/be/nl/p/chaim-potok-6-x-paperback-1-de-belofte-2-het-boek-van-het-licht-3-davita-s-harp-4-het-stof-der-aarde-5-het-cijfer-zeven-6-de-troop-leraar/9300000172487835/,img/Bergstraat 73.jpg
Bergstraat 73,50.903539,4.7304565,Oui J'ose Aimer,Herv¨¦ Bazin,No link found,img/Bergstraat 73.jpg
Bergstraat 73,50.903539,4.7304565,"Regenland, wo ai ni",Lulu Wang,https://www.bol.com/be/nl/p/regenland-wo-ai-ni/9200000034017880/,img/Bergstraat 73.jpg
Bergstraat 73,50.903539,4.7304565,Omnibus,Paul Lebeau,https://www.bol.com/be/nl/p/spirit-stallion-of-cimarron/1002004000083456/,img/Bergstraat 73.jpg
Bergstraat 73,50.903539,4.7304565,Duel in nomansland,Lies Huylebroeck,No link found,img/Bergstraat 73.jpg
Bergstraat 73,50.903539,4.7304565,Schuddingen,Ivo Sasek,https://www.bol.com/be/nl/p/helden-sterven-anders/1002004006866436/,img/Bergstraat 73.jpg
Bergstraat 73,50.903539,4.7304565,"Ik Haal Je Op, Ik Neem Je Mee",Niccol¨° Ammaniti,https://www.bol.com/be/nl/p/ik-haal-je-op-ik-neem-je-mee/1001004007760544/,img/Bergstraat 73.jpg
Bergstraat 73,50.903539,4.7304565,Een vreemdeling in de spiegel,Sidney Sheldon,https://www.bol.com/be/nl/p/een-vreemdeling-in-de-spiegel/9200000072875403/,img/Bergstraat 73.jpg
Bergstraat 73,50.903539,4.7304565,Cris du Coeur,Janine Boissard,https://www.bol.com/be/nl/p/cris-du-coeur/9200000033842819/,img/Bergstraat 73.jpg
Bergstraat 73,50.903539,4.7304565,Geheimen der dierenwereld: Zoogdieren 1,Lekturama ,No link found,img/Bergstraat 73.jpg
Bergstraat 73,50.903539,4.7304565,Geheimen der dierenwereld: Zoogdieren 4,Lekturama ,No link found,img/Bergstraat 73.jpg
Bergstraat 73,50.903539,4.7304565,Geheimen der dierenwereld: Zoogdieren 2,Lekturama ,No link found,img/Bergstraat 73.jpg
Bergstraat 73,50.903539,4.7304565,Ondergang,Jared Diamond,https://www.bol.com/be/nl/p/ondergang/9200000009850315/,img/Bergstraat 73.jpg
Bergstraat 73,50.903539,4.7304565,Metro van de Angst,Eddy C. Bertin,https://www.bol.com/be/nl/p/metro-van-de-angst/666752151/,img/Bergstraat 73.jpg
Bergstraat 73,50.903539,4.7304565,Heilkr?uter und Arzneipflanzen,Georg Fischer,No link found,img/Bergstraat 73.jpg
Bergstraat 73,50.903539,4.7304565,Psychose,Robert Bloch,https://www.bol.com/be/nl/p/psychose/9200000038294755/,img/Bergstraat 73.jpg
Bergstraat 73,50.903539,4.7304565,Le Marin de Gibraltar,Maguerite Duras,https://www.bol.com/be/nl/p/le-marin-de-gibraltar/9200000014625071/,img/Bergstraat 73.jpg
Bergstraat 73,50.903539,4.7304565,147 Ware verhalen van bekende landgenoten,Belgische Multiple Sclerose Liga,No link found,img/Bergstraat 73.jpg
Bergstraat 73,50.903539,4.7304565,Het verhaal van Tracy Beaker,Jacqueline Wilson,https://www.bol.com/be/nl/p/het-verhaal-van-tracy-beaker/9200000002142362/,img/Bergstraat 73.jpg
Klein Langeveld 30,50.91061,4.7204304,Risotto: Pilav & Paella,Anne Wilson,https://www.bol.com/be/nl/p/risotto-pilav-en-paella/1001004006504925/,img/Klein Langeveld 30.jpg
Klein Langeveld 30,50.91061,4.7204304,Bakken & Roerbakken,Anne Wilson,https://www.bol.com/be/nl/p/anne-wilson-10-x-koken-1-stoofschotels-en-eenpans-gerechten-2-bakken-en-roerbakken-3-verrassende-groente-gerechten-4-heerlijk-gehakt-5-klassieke-stoofschotels-6-aardappel-schotels-7-de-landelijke-keuken-8-vetarm-koken-9-pizza-s-en-t/9300000176144032/,img/Klein Langeveld 30.jpg
Klein Langeveld 30,50.91061,4.7204304,Parents Efficaces: La Methode Gordon,Thomas Gordon,https://www.bol.com/be/nl/p/cadres-et-dirigeants-efficaces-la-methode-gordon-pour-un-management-heureux-et-performant/9300000002299831/,img/Klein Langeveld 30.jpg
Klein Langeveld 30,50.91061,4.7204304,Marie Claire Crispy,Michele Cranston,https://www.bol.com/be/nl/p/marie-claire-crisp/1001004002737780/,img/Klein Langeveld 30.jpg
Klein Langeveld 30,50.91061,4.7204304,Citruskookboek,Coralie Dorman,https://www.bol.com/be/nl/p/lemons-limes-oranges/9200000050789243/,img/Klein Langeveld 30.jpg
Klein Langeveld 30,50.91061,4.7204304,De Soepbijbel ,Debra Mayhew,https://www.bol.com/be/nl/p/de-soepbijbel/1001004006522079/,img/Klein Langeveld 30.jpg
Klein Langeveld 30,50.91061,4.7204304,Bijzonder brood,Linda Collister,https://www.bol.com/be/nl/p/bijzonder-brood/1001004001465240/,img/Klein Langeveld 30.jpg
Klein Langeveld 30,50.91061,4.7204304,Foie Gras & Eend,Erik Verdonck,https://www.bol.com/be/nl/p/foie-gras-en-eend/1001004002617931/,img/Klein Langeveld 30.jpg
Klein Langeveld 30,50.91061,4.7204304,Het gezonde Kinderkookboek,Elodie Ouedraogo,No link found,img/Klein Langeveld 30.jpg
Klein Langeveld 30,50.91061,4.7204304,De Droomfabrikanten,Harold Robbins,https://www.bol.com/be/nl/p/de-droomfabrikanten/666879096/,img/Klein Langeveld 30.jpg
Klein Langeveld 30,50.91061,4.7204304,Liefde in het Grandhotel,Marie Louise Fischer,https://www.bol.com/be/nl/p/liefde-in-het-grand-hotel/9200000048251201/,img/Klein Langeveld 30.jpg
Klein Langeveld 30,50.91061,4.7204304,Nothing Lasts Forever,Sidney Sheldon,https://www.bol.com/be/nl/p/nothing-lasts-forever/9200000018004343/,img/Klein Langeveld 30.jpg
Klein Langeveld 30,50.91061,4.7204304,Le Couple,Suzanne Lilar,https://www.bol.com/be/nl/p/le-couple/9200000033169022/,img/Klein Langeveld 30.jpg
Klein Langeveld 30,50.91061,4.7204304,Probl¨¨mes de psychologie g¨¦n¨¦tique,Juan Piaget,No link found,img/Klein Langeveld 30.jpg
Klein Langeveld 30,50.91061,4.7204304,De Roman van Lucas,Frank Slaughter,https://www.bol.com/be/nl/p/down-the-chimney-100-most-treasured-christmas-novels-stories-in-one-volume/9200000085983247/,img/Klein Langeveld 30.jpg
Klein Langeveld 30,50.91061,4.7204304,Justine,Lawrence Durrell,https://www.bol.com/be/nl/p/justine/9300000061388583/,img/Klein Langeveld 30.jpg
Klein Langeveld 30,50.91061,4.7204304,L'Enfant arri¨¦r¨¦ et sa m¨¨re,Maud Mannoni,https://www.bol.com/be/nl/p/enfant-arri-r-et-sa-m-re/9200000037341971/,img/Klein Langeveld 30.jpg
Klein Langeveld 30,50.91061,4.7204304,La prononciation fran?aise d'aujourd'hui,L.P. Kammans,No link found,img/Klein Langeveld 30.jpg
Klein Langeveld 30,50.91061,4.7204304,La psychologie diff¨¦rentielle ,Reuchlin Maurice,No link found,img/Klein Langeveld 30.jpg
Klein Langeveld 30,50.91061,4.7204304,La Chirurgie d'aujourd'hui,J. Auvert,No link found,img/Klein Langeveld 30.jpg
Klein Langeveld 30,50.91061,4.7204304,Toegepaste sociologie 2,Leo Rademaker,https://www.bol.com/be/nl/p/2-toegepaste-sociologie/1001004005161257/,img/Klein Langeveld 30.jpg
Klein Langeveld 30,50.91061,4.7204304,Vos zones erron¨¦es,Wayne W. Dyer,No link found,img/Klein Langeveld 30.jpg
Klein Langeveld 30,50.91061,4.7204304,La D¨¦pression nerveuse et le Corps,Alexander Lowen,No link found,img/Klein Langeveld 30.jpg
Klein Langeveld 30,50.91061,4.7204304,Prabhupada,Satsvarupa das Goswami,https://www.bol.com/be/nl/p/prabhupada-solo-el-podia-guiarlos/9300000101903236/,img/Klein Langeveld 30.jpg
Klein Langeveld 30,50.91061,4.7204304,Uki - Taart op pootjes,Lannoo,https://www.bol.com/be/nl/p/uki-taart-op-pootjes/1001004010625821/,img/Klein Langeveld 30.jpg
Klein Langeveld 30,50.91061,4.7204304,Uki - Konijn vliegt,Lannoo,No link found,img/Klein Langeveld 30.jpg
Klein Langeveld 30,50.91061,4.7204304,Pastagerechten,Deltas,https://www.bol.com/be/nl/p/de-lekkerste-pastagerechten/1001004001578386/,img/Klein Langeveld 30.jpg
Klein Langeveld 30,50.91061,4.7204304,Embedded C,Michael J. Pont,https://www.bol.com/be/nl/p/embedded-c/1001004001766807/,img/Klein Langeveld 30.jpg
Klein Langeveld 30,50.91061,4.7204304,De Eenhoorn,Teresa van Marcke,https://www.bol.com/be/nl/p/de-eenhoorn/1001004005165491/,img/Klein Langeveld 30.jpg
Klein Langeveld 30,50.91061,4.7204304,Dochter van de Aarde,Agnes Smedley,https://www.bol.com/be/nl/p/dochter-van-de-aarde/1001004005093936/,img/Klein Langeveld 30.jpg
Klein Langeveld 30,50.91061,4.7204304,Molly de Muis,C¨¦cile Marbehant,No link found,img/Klein Langeveld 30.jpg
Klein Langeveld 30,50.91061,4.7204304,Bumba - Mijn Groot Voelboek,Studio 100,https://www.bol.com/be/nl/p/bumba-mijn-groot-voelboek-de-seizoenen/9200000100887944/,img/Klein Langeveld 30.jpg
Klein Langeveld 30,50.91061,4.7204304,Kindervriendschappen,Z. Rubin,https://www.bol.com/be/nl/p/kindervriendschappen/1001004005113365/,img/Klein Langeveld 30.jpg
Klein Langeveld 30,50.91061,4.7204304,De Sirene,Franklin W. Dixon,https://www.bol.com/be/nl/p/de-nieuwe-hardy-s-5-delen-1-deel-2-de-gekruiste-schaduw-2-deel-4-afzender-onbekend-3-deel-30-geheim-agent-op-vlucht-101-4-deel-31-door-het-oog-van-de-naald-5-deel-33-de-sirene/9300000168429255/,img/Klein Langeveld 30.jpg
Klein Langeveld 30,50.91061,4.7204304,Jan Monter en de groene banier,Julien Van Remoortere,https://www.bol.com/be/nl/p/jan-monter-en-de-groene-banier/1001004005086541/,img/Klein Langeveld 30.jpg
Klein Langeveld 30,50.91061,4.7204304,Bijbel voor peuters en kleuters,Elmar,https://www.bol.com/be/nl/p/verhaaltjes-uit-de-schatkamer-van-de-bijbel/9200000049021357/,img/Klein Langeveld 30.jpg
Klein Langeveld 30,50.91061,4.7204304,Leuk Maar Lastig,Susan Mallery,https://www.bol.com/be/nl/p/leuk-maar-lastig/9300000033061382/,img/Klein Langeveld 30.jpg
Klein Langeveld 30,50.91061,4.7204304,Spoedopname,Marcia Rose,https://www.bol.com/be/nl/p/spoedopname/666811596/,img/Klein Langeveld 30.jpg
Klein Langeveld 30,50.91061,4.7204304,By loes en noortje thuis,Trix can Brussel,https://www.bol.com/be/nl/p/by-loes-en-noortje-thuis/1001004005122968/,img/Klein Langeveld 30.jpg
Klein Langeveld 30,50.91061,4.7204304,Homeless World Cup,Geert Degrande,No link found,img/Klein Langeveld 30.jpg
Klein Langeveld 30,50.91061,4.7204304,Een Boutique voor Patricia,Annamaria Ferretti,No link found,img/Klein Langeveld 30.jpg
Klein Langeveld 30,50.91061,4.7204304,Uienhoofd,Weldon Hill,https://www.bol.com/be/nl/p/ninja/9300000161599986/,img/Klein Langeveld 30.jpg
Klein Langeveld 30,50.91061,4.7204304,Het Spel van de Liefde,Rosemary Rogers,https://www.bol.com/be/nl/p/het-spel-van-de-liefde/1001004001510433/,img/Klein Langeveld 30.jpg
Klein Langeveld 30,50.91061,4.7204304,Hedge Funds,Fran?ois-Serge Lhabitant,https://www.bol.com/be/nl/p/hedge-funds/1001004007140394/,img/Klein Langeveld 30.jpg
Klein Langeveld 30,50.91061,4.7204304,De Pallisers,Anthony Trollope,https://www.bol.com/be/nl/p/de-pallisers/9200000048863846/,img/Klein Langeveld 30.jpg
Klein Langeveld 30,50.91061,4.7204304,Ruige nachten,Cyril Collard,https://www.bol.com/be/nl/p/ruige-nachten/1001004001536653/,img/Klein Langeveld 30.jpg
Klein Langeveld 30,50.91061,4.7204304,Het spoor van Egbert,Lydia Verbeeck,https://www.bol.com/be/nl/p/het-spoor-van-egbert/1001004005154965/,img/Klein Langeveld 30.jpg
Klein Langeveld 30,50.91061,4.7204304,365 dierenverhalen,J. Peels,https://www.bol.com/be/nl/p/365-dierenverhalen/1001004005129250/,img/Klein Langeveld 30.jpg
Klein Langeveld 30,50.91061,4.7204304,Lies of Silence,Brian Moore,https://www.bol.com/be/nl/p/lies-of-silence/1001004000968062/,img/Klein Langeveld 30.jpg
Klein Langeveld 30,50.91061,4.7204304,Liefde tegen liefde,Beno?te Groult,No link found,img/Klein Langeveld 30.jpg
Klein Langeveld 30,50.91061,4.7204304,Liefde in het grand hotel,Marie Louise Fischer ,https://www.bol.com/be/nl/p/liefde-in-het-grand-hotel/9200000048251201/,img/Klein Langeveld 30.jpg
Klein Langeveld 30,50.91061,4.7204304,De droomfabrikanten,Harold Robbins,https://www.bol.com/be/nl/p/de-droomfabrikanten/666879096/,img/Klein Langeveld 30.jpg
Klein Langeveld 30,50.91061,4.7204304,Wie Nooit Gezondigd Heft,John Jacoby,No link found,img/Klein Langeveld 30.jpg
Klein Langeveld 30,50.91061,4.7204304,Roeping en Geweten,Andre Caroll,No link found,img/Klein Langeveld 30.jpg
Klein Langeveld 30,50.91061,4.7204304,Zoete Leugens,Susan Isaacs,https://www.bol.com/be/nl/p/zoete-leugens/1001004001515010/,img/Klein Langeveld 30.jpg
Klein Langeveld 30,50.91061,4.7204304,De Heerlijkheid van Julia,Oscar van den Boogaard,https://www.bol.com/be/nl/p/de-heerlijkheid-van-julia/9200000068141504/,img/Klein Langeveld 30.jpg
Klein Langeveld 30,50.91061,4.7204304,Vandaag Begon Ik Opnieuw,Inge Takin,No link found,img/Klein Langeveld 30.jpg
Klein Langeveld 30,50.91061,4.7204304,Vreugdevuur,Rudi Hermans ,https://www.bol.com/be/nl/p/vreugdevuur/1001004001503558/,img/Klein Langeveld 30.jpg
Klein Langeveld 30,50.91061,4.7204304,Het Parkietenboekje,V.C. Breed,No link found,img/Klein Langeveld 30.jpg
Klein Langeveld 30,50.91061,4.7204304,Plotseling alleen,Marlene Lohner,No link found,img/Klein Langeveld 30.jpg
Klein Langeveld 30,50.91061,4.7204304,De Nieuwe Kinderbijbel,Anne Edwards,https://www.bol.com/be/nl/p/groot-vertelboek-voor-de-bijbelse-geschiedenis-nieuwe-testament/1001004001993637/,img/Klein Langeveld 30.jpg
Klein Langeveld 30,50.91061,4.7204304,"Kanarievogels. Het houden, kweken, verzorgen en africhten.",A. Bartels,No link found,img/Klein Langeveld 30.jpg
Klein Langeveld 30,50.91061,4.7204304,Overgang op Alternatieve Wijze,Joyce Wouters,https://www.bol.com/be/nl/p/overgang-op-alternatieve-wijze-de/666832215/,img/Klein Langeveld 30.jpg
Klein Langeveld 30,50.91061,4.7204304,Voor de vriend die naliet mij het leven te redden,Herv¨¦ Guibert,https://www.bol.com/be/nl/p/voor-de-vriend-die-naliet-mij-het-leven-te-redden/666776040/,img/Klein Langeveld 30.jpg
Klein Langeveld 30,50.91061,4.7204304,Een tijdelijke schuilplaats en andere verhalen,Mary Gordon,No link found,img/Klein Langeveld 30.jpg
Wielewaallaan 26,50.901261,4.7203928,"Doorgaan, ja of nee?",Jack Dominian,No link found,img/Wielewaallaan 26.jpg
Wielewaallaan 26,50.901261,4.7203928,Dansen op de vulkaan,Anthony Capella,https://www.bol.com/be/nl/p/libelle-bibliotheek-dansen-op-de-vulkaan/9200000021327696/,img/Wielewaallaan 26.jpg
Wielewaallaan 26,50.901261,4.7203928,De kookclub,Sophie King,https://www.bol.com/be/nl/p/de-kookclub/1001004008186920/,img/Wielewaallaan 26.jpg
Wielewaallaan 26,50.901261,4.7203928,Het Beste Boek 137,Desmond Bagley,No link found,img/Wielewaallaan 26.jpg
Wielewaallaan 26,50.901261,4.7203928,Als Je Me Niet Kunt Horen,Jack Lance,https://www.bol.com/be/nl/p/als-je-me-niet-kunt-horen-jack-lance/9200000061855712/,img/Wielewaallaan 26.jpg
Wielewaallaan 26,50.901261,4.7203928,Het geheim van de Nijl,Elizabeth Peters,No link found,img/Wielewaallaan 26.jpg
Wielewaallaan 26,50.901261,4.7203928,Zieltjes Zonder Zorg,Eva Versteeg,No link found,img/Wielewaallaan 26.jpg
Wielewaallaan 26,50.901261,4.7203928,Zwangerschap van Week Tot Week,Trudy van Ommeren,No link found,img/Wielewaallaan 26.jpg
Wielewaallaan 26,50.901261,4.7203928,Wij Hebben Een Baby,Irene Vergagen,No link found,img/Wielewaallaan 26.jpg
Wielewaallaan 26,50.901261,4.7203928,Nog Bij Moeder Thuis,Eva Versteeg,No link found,img/Wielewaallaan 26.jpg
Wielewaallaan 26,50.901261,4.7203928,Gids voor de Homeopatie,Luc Chaltin,No link found,img/Wielewaallaan 26.jpg
Wielewaallaan 26,50.901261,4.7203928,Eva's Oog,Karin Fossum,https://www.bol.com/be/nl/p/eva-s-oog/1001004001638643/,img/Wielewaallaan 26.jpg
Wielewaallaan 26,50.901261,4.7203928,Using Existing Light,Caroline Grimes,No link found,img/Wielewaallaan 26.jpg
Wielewaallaan 26,50.901261,4.7203928,"Marie-Jos¨¦: Princesse de Belgique, derni¨¨re reine d'Italie ",Agnes Adriaenssen,No link found,img/Wielewaallaan 26.jpg
Wielewaallaan 26,50.901261,4.7203928,Global Tender Mangement Optimization,Marcel Gessler,No link found,img/Wielewaallaan 26.jpg
Wielewaallaan 26,50.901261,4.7203928,Boelvaar poef 2013 - 2/3/4,Belgische Louis Paul Boongenootschap,No link found,img/Wielewaallaan 26.jpg
Wielewaallaan 26,50.901261,4.7203928,08/15 Omnibus,Hans Hellmut Kirst,https://www.bol.com/be/nl/p/08-15-omnibus/1001004005138231/,img/Wielewaallaan 26.jpg
Wielewaallaan 26,50.901261,4.7203928,De meesterwerken van Emile Zola,¨¦mile Zola,No link found,img/Wielewaallaan 26.jpg
Wielewaallaan 26,50.901261,4.7203928,The Adobe Photoshop Lightroom 3 Book: The Complete Guide for Photographers,Martin Evening,https://www.bol.com/be/nl/p/adobe-photoshop-lightroom-3-book/1001004010295296/,img/Wielewaallaan 26.jpg
Wielewaallaan 26,50.901261,4.7203928,Gigi,Judith Krantz,https://www.bol.com/be/nl/p/judith-krantz-5-x-hardcover-1-frederique-2-justine-3-gigi-4-dazzle-5-scruples/9300000172480155/,img/Wielewaallaan 26.jpg
Wielewaallaan 26,50.901261,4.7203928,Deze Kant van de Vrede,Hanan Ashrawi,https://www.bol.com/be/nl/p/deze-kant-van-de-vrede/1001004001510816/,img/Wielewaallaan 26.jpg
Wielewaallaan 26,50.901261,4.7203928,Gids Homeopathie,Luc Chaltin,No link found,img/Wielewaallaan 26.jpg
Wielewaallaan 26,50.901261,4.7203928,Dokter zonder geweten / Offer twee vrouwen voor een man / Bankroof per computer,Sam Webster,No link found,img/Wielewaallaan 26.jpg
Eenmeilaan 35,50.885895,4.7175497,Tuin Wekboek van Maand to Maand,Wim Oudshoorn,No link found,img/Eenmeilaan 35.jpg
Eenmeilaan 35,50.885895,4.7175497,De Claim,John Grisham,https://www.bol.com/be/nl/p/john-grisham-de-broederschap-de-partner-de-claim-3-boeken/9300000150155542/,img/Eenmeilaan 35.jpg
Wipstraat 1,50.886856,4.7205591,Zazapina in de Zoo,Liva Wilems,https://www.bol.com/be/nl/p/zazapina-in-de-zoo/1001004005089789/,img/Wipstraat 1.jpg
Wipstraat 1,50.886856,4.7205591,Frits en Tineke,Jeannette van Luipen-Bronwasser,https://www.bol.com/be/nl/p/frits-en-tineke/1001004005096111/,img/Wipstraat 1.jpg
Wipstraat 1,50.886856,4.7205591,Sorceress,Celia Rees,https://www.bol.com/be/nl/p/sorceress/9200000127762520/,img/Wipstraat 1.jpg
Wipstraat 1,50.886856,4.7205591,Die Riten der G?tter,Frank Herbert,No link found,img/Wipstraat 1.jpg
Wipstraat 1,50.886856,4.7205591,Timmie is Verdwenen!,Margret Rettich,https://www.bol.com/be/nl/p/timmie-is-verdwenen/1001004001555718/,img/Wipstraat 1.jpg
Wipstraat 1,50.886856,4.7205591,In de Stilte van de Nacht,Nancy Price,https://www.bol.com/be/nl/p/in-de-stilte-van-de-nacht/1001004001534895/,img/Wipstraat 1.jpg
Wipstraat 1,50.886856,4.7205591,Als de dauw hangt komt er regen,Margit S?derholm,No link found,img/Wipstraat 1.jpg
Wipstraat 1,50.886856,4.7205591,Torias de Tovenaar,Hans Keuls,No link found,img/Wipstraat 1.jpg
Wipstraat 1,50.886856,4.7205591,Made in America: Regaining the Productive Edge,Michael L. Dertouzos,https://www.bol.com/be/nl/p/made-in-america/1001004000646091/,img/Wipstraat 1.jpg
Wipstraat 1,50.886856,4.7205591,Scherven,Katrien Vandewoude,https://www.bol.com/be/nl/p/scherven/1001004001555818/,img/Wipstraat 1.jpg
Rijende Artillerielaan,50.884072,4.7050264,VRG Codex 2000-2001,Wolters Kluwer,No link found,img/Rijende Artillerielaan.jpg
Rijende Artillerielaan,50.884072,4.7050264,De Weg Naar Het Water,Barbara Gowdy,https://www.bol.com/be/nl/p/de-weg-naar-het-water/666845228/,img/Rijende Artillerielaan.jpg
Rijende Artillerielaan,50.884072,4.7050264,Johan Doxa,Herman Teirlinck,https://www.bol.com/be/nl/p/johan-doxa/1001004005087508/,img/Rijende Artillerielaan.jpg
Rijende Artillerielaan,50.884072,4.7050264,Het Leven Van Vernon 1,Virginie Despentes,https://www.bol.com/be/nl/p/het-leven-van-vernon-1/9200000052023825/,img/Rijende Artillerielaan.jpg
Mechelsesteenweg 55,50.890961,4.6940804,Capriccio Italiano en Goden en eilanden,Bertus Aafjes,https://www.bol.com/be/nl/p/capriccio-italiano-goden-en-eilanden/9200000048779329/,img/Mechelsesteenweg 55.jpg
Mechelsesteenweg 55,50.890961,4.6940804,Mijn leuk dieren puzzelboek 2-4 jaar,Zuidnederlandse Uitgeverij ,https://www.bol.com/be/nl/p/mijn-leuk-dieren-puzzelboek-2-4-jaar/1001004007579398/,img/Mechelsesteenweg 55.jpg
Mechelsesteenweg 55,50.890961,4.6940804,Geloven in God,H. Berkhof,https://www.bol.com/be/nl/p/wij-geloven-in-god-en-in-christus/1001004002057547/,img/Mechelsesteenweg 55.jpg
Mechelsesteenweg 55,50.890961,4.6940804,Plan B,Emily Barr,https://www.bol.com/be/nl/p/plan-b/9200000020408394/,img/Mechelsesteenweg 55.jpg
Mechelsesteenweg 55,50.890961,4.6940804,Ripley Achterna,Patricia Highsmith,https://www.bol.com/be/nl/p/ripley-achterna/666780117/,img/Mechelsesteenweg 55.jpg
Mechelsesteenweg 55,50.890961,4.6940804,Diamant,Jef Geeraerts,https://www.bol.com/be/nl/p/dossier-k/1001004011369359/,img/Mechelsesteenweg 55.jpg
Mechelsesteenweg 55,50.890961,4.6940804,De geverfde duivel,Christine Aventin ,https://www.bol.com/be/nl/p/geverfde-duivel/1001004001529255/,img/Mechelsesteenweg 55.jpg
Mechelsesteenweg 55,50.890961,4.6940804,Rose de Provence,Axel Boots,https://www.bol.com/be/nl/p/rose-de-provence/1001004001509952/,img/Mechelsesteenweg 55.jpg
Mechelsesteenweg 55,50.890961,4.6940804,Stranddieven,Joanne Harris,https://www.bol.com/be/nl/p/stranddieven/1001004001807291/,img/Mechelsesteenweg 55.jpg
Mechelsesteenweg 55,50.890961,4.6940804,Eva's Oog,Karin Fossum,https://www.bol.com/be/nl/p/eva-s-oog/1001004001638643/,img/Mechelsesteenweg 55.jpg
Mechelsesteenweg 55,50.890961,4.6940804,Red Dress Ink,Erica Orloff,https://www.bol.com/be/nl/p/mafia-chic/1001004002256432/,img/Mechelsesteenweg 55.jpg
Mechelsesteenweg 55,50.890961,4.6940804,1001 tips voor alledag,M&P,No link found,img/Mechelsesteenweg 55.jpg
Mechelsesteenweg 55,50.890961,4.6940804,J'ai ¨¦pous¨¦ un inconnu,Patricia Macdonald,https://www.bol.com/be/nl/p/j-ai-epouse-un-inconnu/9200000033698210/,img/Mechelsesteenweg 55.jpg
Mechelsesteenweg 55,50.890961,4.6940804,Zonder Genade,Renate Dorrestein,https://www.bol.com/be/nl/p/zonder-genade/9200000011874102/,img/Mechelsesteenweg 55.jpg
Mechelsesteenweg 55,50.890961,4.6940804,Bibi gaat ervoor,Jolanda Dijkmeijer,https://www.bol.com/be/nl/p/bibi-gaat-ervoor/9200000008614197/,img/Mechelsesteenweg 55.jpg
Mechelsesteenweg 55,50.890961,4.6940804,Jools Oliver van min negen tot plus een!,Jools Oliver,https://www.bol.com/be/nl/p/van-min-negen-tot-plus-een/1001004002598912/,img/Mechelsesteenweg 55.jpg
Schorenshof 13,50.890616,4.6986294,De Belofte van Uw Leven,Theije Twijnstra,https://www.bol.com/be/nl/p/de-belofte-van-uw-leven/666823285/,img/Schorenshof 13.jpg
Schorenshof 13,50.890616,4.6986294,Met Liefde,Jan Brokken,https://www.bol.com/be/nl/p/de-ontdekking-van-holland/9300000164983998/,img/Schorenshof 13.jpg
Schorenshof 13,50.890616,4.6986294,366 Tips voor de Biodiversiteit,Camille Pisani,No link found,img/Schorenshof 13.jpg
Schorenshof 13,50.890616,4.6986294,Shakespeare on Love,Benjamin Darling,https://www.bol.com/be/nl/p/warbler-press-contemplations-shakespeare-on-love/9300000007933095/,img/Schorenshof 13.jpg
Schorenshof 13,50.890616,4.6986294,De 7 spirituele wetten van succes,Deepak Chopra,https://www.bol.com/be/nl/p/de-7-spirituele-wetten-van-succes/9300000061978654/,img/Schorenshof 13.jpg
Schorenshof 13,50.890616,4.6986294,Monterosso mon amour,Ilja Leonard Pfeijffer,https://www.bol.com/be/nl/p/monterosso-mon-amour/9300000093246356/,img/Schorenshof 13.jpg
Schorenshof 13,50.890616,4.6986294,Liefde is het enige,Kees Winkler,https://www.bol.com/be/nl/p/liefde-is-het-enige/666793053/,img/Schorenshof 13.jpg
Schorenshof 13,50.890616,4.6986294,Het Bucketlist Boek voor ouders ,Elise de Rijck,https://www.bol.com/be/nl/p/bucketlist-het-bucketlist-boek-voor-ouders/9200000072427149/,img/Schorenshof 13.jpg
Schorenshof 13,50.890616,4.6986294,Tijd voor jezelf,Kathryn Nicolai,https://www.bol.com/be/nl/p/tijd-voor-jezelf/9300000004657771/,img/Schorenshof 13.jpg
Jaartallenpad,50.885533,4.6971273,Vakdidactiek voor leraren economie ,Kristof De Witte,https://www.bol.com/be/nl/p/vakdidactiek-economie/9200000045885071/,img/Jaartallenpad.jpg
Jaartallenpad,50.885533,4.6971273,United Nations Convention to Combat Desertification: The Land-Drought Nexus,Anke Reichuber,No link found,img/Jaartallenpad.jpg
Jaartallenpad,50.885533,4.6971273,Het land achter de horizon,Tonny Vos-Dahmen von Buchholz,No link found,img/Jaartallenpad.jpg
Jaartallenpad,50.885533,4.6971273,Leren in maatschappelijk betrokken onderwijs ,Jan Elen,https://www.bol.com/be/nl/p/leren-in-maatschappelijk-betrokken-onderwijs/9200000114012302/,img/Jaartallenpad.jpg
Jaartallenpad,50.885533,4.6971273,"Emilie of Over opvoeding, onderwijs en opera",Stefaan E. Cuypers,https://www.bol.com/be/nl/p/emilie-of-over-opvoeding-onderwijs-en-opera/9300000005714547/,img/Jaartallenpad.jpg
Jaartallenpad,50.885533,4.6971273,Fatale Fout,Sophie Hannah,https://www.bol.com/be/nl/p/fatale-fout/9200000085931460/,img/Jaartallenpad.jpg
Jaartallenpad,50.885533,4.6971273,Fortune ,Paul Loup Karl Sulitzer,https://www.bol.com/be/nl/p/fortune-paul-loup-sulitzer/9300000065367756/,img/Jaartallenpad.jpg
Jaartallenpad,50.885533,4.6971273,De Ark,Zhang Jie,https://www.bol.com/be/nl/p/de-ark/1001004001558179/,img/Jaartallenpad.jpg
Vaartkom 4,50.887583,4.7002172,Brandend Brazili?,Jan Vanhaelen,https://www.bol.com/be/nl/p/brandend-brazilie-jan-vanhaelen/1001004001539636/,img/Vaartkom 4.jpg
Vaartkom 4,50.887583,4.7002172,Wilde Lavendel,Belinda Alexandra,https://www.bol.com/be/nl/p/wilde-lavendel/1001004002765114/,img/Vaartkom 4.jpg
Vaartkom 4,50.887583,4.7002172,Een Huis In Toscane,Frances Mayes,https://www.bol.com/be/nl/p/een-huis-in-toscane/9200000049438277/,img/Vaartkom 4.jpg
Brouwersstraat 36,50.88317,4.6934879,Galveston,Suzanne Morris,https://www.bol.com/be/nl/p/galveston/9200000073393837/,img/Brouwersstraat 36.jpg
Brouwersstraat 36,50.88317,4.6934879,Darjeeling,Dominique Marny,https://www.bol.com/be/nl/p/darjeeling/9200000033028831/,img/Brouwersstraat 36.jpg
Brouwersstraat 36,50.88317,4.6934879,L'Alternative Du Diable,Frederick Forsyth,No link found,img/Brouwersstraat 36.jpg
Brouwersstraat 36,50.88317,4.6934879,Kookgids lichte gerechten,Kathryn Hawkins,https://www.bol.com/be/nl/p/kookgids-lichte-gerechten/9200000048780700/,img/Brouwersstraat 36.jpg
Brouwersstraat 36,50.88317,4.6934879,De Rode Ridder: De Wrede Slavendrijver,Leopold Vermeiren,No link found,img/Brouwersstraat 36.jpg
Brouwersstraat 36,50.88317,4.6934879,De Koffiebar,Sherri Johns,https://www.bol.com/be/nl/p/ghostbusters-1-2/1002004006572845/,img/Brouwersstraat 36.jpg
Brouwersstraat 36,50.88317,4.6934879,De Rode Ridder: Op de Yzerenbrug,Leopold Vermeiren,https://www.bol.com/be/nl/p/de-rode-ridder-op-de-ijzeren-brug/9200000048692864/,img/Brouwersstraat 36.jpg
Brouwersstraat 36,50.88317,4.6934879,Les Coulisses de Scotland Yard,Robert Barr,No link found,img/Brouwersstraat 36.jpg
Brouwersstraat 36,50.88317,4.6934879,De Wittgensteins,Alexander Waugh,https://www.bol.com/be/nl/p/de-wittgensteins/1001004006872047/,img/Brouwersstraat 36.jpg
Brouwersstraat 36,50.88317,4.6934879,Maak dat je Wegkomt,Fred Vargas,https://www.bol.com/be/nl/p/maak-dat-je-wegkomt/9200000026301008/,img/Brouwersstraat 36.jpg
Brouwersstraat 36,50.88317,4.6934879,Fin de Soir¨¦e,Guy Lagorce,https://www.bol.com/be/nl/p/fin-de-soiree/9200000033170129/,img/Brouwersstraat 36.jpg
Brouwersstraat 36,50.88317,4.6934879,Return to Eden,Rosalind Miles,No link found,img/Brouwersstraat 36.jpg
Brouwersstraat 36,50.88317,4.6934879,Rak¨®ssy,Cecelia Holland,No link found,img/Brouwersstraat 36.jpg
Brouwersstraat 36,50.88317,4.6934879,Rachel et ses Amours,Charles Exbrayat,https://www.bol.com/be/nl/p/rachel-et-ses-amours/9200000034472583/,img/Brouwersstraat 36.jpg
Brouwersstraat 36,50.88317,4.6934879,Brandend Verlangen,Constance Gluyas,https://www.bol.com/be/nl/p/brandend-verlangen-constance-gluyas/1001004005128044/,img/Brouwersstraat 36.jpg
Brouwersstraat 36,50.88317,4.6934879,Jean de la Nuit,Juliette Benzoni,https://www.bol.com/be/nl/p/les-loups-de-lauzargues-tome-1-jean-de-la-nuit/9300000111302549/,img/Brouwersstraat 36.jpg
Brouwersstraat 36,50.88317,4.6934879,Le Tueur et Son Ombre,Herbert Lieberman,https://www.bol.com/be/nl/p/tueur-et-son-ombre/9200000038292196/,img/Brouwersstraat 36.jpg
Mechelsesteenweg 485,50.907363,4.6683741,Vlucht van de witte wolf,Mel Ellis,https://www.bol.com/be/nl/p/vlucht-van-de-witte-wolf/1001004005085129/,img/Mechelsesteenweg 485.jpg
Mechelsesteenweg 485,50.907363,4.6683741,Huwelijksnacht,Kerstin Thorvall,https://www.bol.com/be/nl/p/huwelijksnacht/1001004001316766/,img/Mechelsesteenweg 485.jpg
Mechelsesteenweg 485,50.907363,4.6683741,Vuurproef,James Webb,https://www.bol.com/be/nl/p/geekclub-nasa-collection-james-webb-space-telescope-excl-tools-solderen-electronica/9300000120752033/,img/Mechelsesteenweg 485.jpg
Mechelsesteenweg 485,50.907363,4.6683741,Fel Waait de Passaat,Peter Gilman,No link found,img/Mechelsesteenweg 485.jpg
Mechelsesteenweg 485,50.907363,4.6683741,De Schaduw der Beelden,William Barrett,No link found,img/Mechelsesteenweg 485.jpg
Mechelsesteenweg 485,50.907363,4.6683741,De bevrijding van Old Surehand,Karl Friedrich May,No link found,img/Mechelsesteenweg 485.jpg
Mechelsesteenweg 485,50.907363,4.6683741,De Avonden,Gerard Reve,https://www.bol.com/be/nl/p/de-avonden/9300000165609923/,img/Mechelsesteenweg 485.jpg
Mechelsesteenweg 485,50.907363,4.6683741,Februari,Rob van Essen,https://www.bol.com/be/nl/p/de-maanden-6-februari/9300000117168231/,img/Mechelsesteenweg 485.jpg
Mechelsesteenweg 485,50.907363,4.6683741,Languit Rillen in de Zon,Irina van Goeree,https://www.bol.com/be/nl/p/languit-rillen-in-de-zon/9200000049039709/,img/Mechelsesteenweg 485.jpg
Mechelsesteenweg 485,50.907363,4.6683741,Bram en Brom roepen de brandweer, Schermel¨¦ Willy ,No link found,img/Mechelsesteenweg 485.jpg
Mechelsesteenweg 485,50.907363,4.6683741,De liefde van don Jubilo,Laura Esquivel,https://www.bol.com/be/nl/p/rozen-en-tortilla-s-en-de-liefde-van-don-jubilo/1001004002720049/,img/Mechelsesteenweg 485.jpg
Mechelsesteenweg 485,50.907363,4.6683741,Jeugdomnibus,Leen van Marcke,https://www.bol.com/be/nl/p/jeugdomnibus/9200000048442094/,img/Mechelsesteenweg 485.jpg
Mechelsesteenweg 485,50.907363,4.6683741,De Val van een Fundamentalist,Mohsin Hamid,https://www.bol.com/be/nl/p/de-val-van-een-fundamentalist/1001004006227699/,img/Mechelsesteenweg 485.jpg
Mechelsesteenweg 485,50.907363,4.6683741,De beste rijtechnieken voor de mountainbiker,Holger Meyer,https://www.bol.com/be/nl/p/de-beste-rijtechnieken-voor-de-mountainbiker/9200000091298342/,img/Mechelsesteenweg 485.jpg
Mechelsesteenweg 485,50.907363,4.6683741,Drugs,Jef Geeraerts,https://www.bol.com/be/nl/p/drugs/1001004001509874/,img/Mechelsesteenweg 485.jpg
Mechelsesteenweg 485,50.907363,4.6683741,De Kleur van de Zee,Anita Shreve,https://www.bol.com/be/nl/p/de-kleur-van-de-zee/1001004011515541/,img/Mechelsesteenweg 485.jpg
Mechelsesteenweg 485,50.907363,4.6683741,Libert¨¦ Egalit¨¦ Beyonc¨¦,John Davis,No link found,img/Mechelsesteenweg 485.jpg
Mechelsesteenweg 485,50.907363,4.6683741,Zekerheid,Madeleine Thien,https://www.bol.com/be/nl/p/do-not-say-we-have-nothing/9200000065734900/,img/Mechelsesteenweg 485.jpg
Mechelsesteenweg 485,50.907363,4.6683741,Laura,Emmanuelle Arsan,https://www.bol.com/be/nl/p/laura/9200000049386652/,img/Mechelsesteenweg 485.jpg
Mechelsesteenweg 485,50.907363,4.6683741,"Gezond vanbinnen, vanbuiten mooi",Jo Wyckmans,https://www.bol.com/be/nl/p/gezond-vanbinnen-vanbuiten-mooi/9200000058575867/,img/Mechelsesteenweg 485.jpg
Mechelsesteenweg 485,50.907363,4.6683741,Het vuur van de liefde,Sandra Paretti,https://www.bol.com/be/nl/p/het-vuur-van-de-liefde/9200000095309728/,img/Mechelsesteenweg 485.jpg
Mechelsesteenweg 485,50.907363,4.6683741,Nathan's vlucht,John Gilstrap,https://www.bol.com/be/nl/p/nathans-vlucht-zb-3161/1001004002054936/,img/Mechelsesteenweg 485.jpg
Mechelsesteenweg 485,50.907363,4.6683741,Uit Elkaar,Veronique Puts,https://www.bol.com/be/nl/p/miauwkes-melkmuil-scheefsnor/9300000155865073/,img/Mechelsesteenweg 485.jpg
Mechelsesteenweg 485,50.907363,4.6683741,Een leven voor en een leven na ,Nadja Vanhelden,https://www.bol.com/be/nl/p/een-leven-voor-en-een-leven-na/9300000109242620/,img/Mechelsesteenweg 485.jpg
Mechelsesteenweg 485,50.907363,4.6683741,Our John Willie,Catherine Cookson,No link found,img/Mechelsesteenweg 485.jpg
Mechelsesteenweg 485,50.907363,4.6683741,De vrouwen van mijn vriend,A.J. Cronin,No link found,img/Mechelsesteenweg 485.jpg
Mechelsesteenweg 485,50.907363,4.6683741,Aftershock: Protect Yourself and Profit in the Next Global Financial Meltdown ,David Wiedemer,https://www.bol.com/be/nl/p/aftershock/1001004010613924/,img/Mechelsesteenweg 485.jpg
Mechelsesteenweg 485,50.907363,4.6683741,Het Beste Boek 64,Vital Alsar,No link found,img/Mechelsesteenweg 485.jpg
Mechelsesteenweg 485,50.907363,4.6683741,Rosalie Niemand,Elisabeth Marain,https://www.bol.com/be/nl/p/rosalie-niemand-roman/666795769/,img/Mechelsesteenweg 485.jpg
Mechelsesteenweg 485,50.907363,4.6683741,Patricia,Aster Berkhof,https://www.bol.com/be/nl/p/veel-geluk-professor/9300000018474814/,img/Mechelsesteenweg 485.jpg
Mechelsesteenweg 485,50.907363,4.6683741,Tranen Over Shanghai,Natasha Peters,https://www.bol.com/be/nl/p/tranen-over-shanghai/9200000035026661/,img/Mechelsesteenweg 485.jpg
Mechelsesteenweg 485,50.907363,4.6683741,"Porporino, of De mysteries van Napels",Dominique Fernandez,https://www.bol.com/be/nl/p/porporino-of-de-mysteries-van-napels/9200000049545762/,img/Mechelsesteenweg 485.jpg
Mechelsesteenweg 485,50.907363,4.6683741,Spookhuis aan de Amstel,Barend Doesburg,No link found,img/Mechelsesteenweg 485.jpg
Mechelsesteenweg 485,50.907363,4.6683741,De Gestolen Kroon,Staf Weyts,No link found,img/Mechelsesteenweg 485.jpg
Mechelsesteenweg 485,50.907363,4.6683741,De Maansteen,A. Lefeber,https://www.bol.com/be/nl/p/maansteen/9200000048857453/,img/Mechelsesteenweg 485.jpg
Mechelsesteenweg 485,50.907363,4.6683741,De Avonturen van Bing,Omer de Dier,No link found,img/Mechelsesteenweg 485.jpg
Mechelsesteenweg 485,50.907363,4.6683741,Alleen op de wereld,Hector Malot,https://www.bol.com/be/nl/p/alleen-op-de-wereld/9200000060020408/,img/Mechelsesteenweg 485.jpg
Mechelsesteenweg 485,50.907363,4.6683741,Het Robotten Eiland,M. Renders,No link found,img/Mechelsesteenweg 485.jpg
Mechelsesteenweg 485,50.907363,4.6683741,Een heldenleven,Persis Bekkering,https://www.bol.com/be/nl/p/een-heldenleven/9200000075700021/,img/Mechelsesteenweg 485.jpg
Mechelsesteenweg 485,50.907363,4.6683741,Belle et B¨ºte,Marcela Iacub,No link found,img/Mechelsesteenweg 485.jpg
Mechelsesteenweg 485,50.907363,4.6683741,De Grote Ontdekkingsreizigers,Hans-Otto Meissner,No link found,img/Mechelsesteenweg 485.jpg
Mechelsesteenweg 485,50.907363,4.6683741,De Zaak Alzheimer,Jef Geeraerts,https://www.bol.com/be/nl/p/de-zaak-alzheimer-film-editie/1001004002032111/,img/Mechelsesteenweg 485.jpg
Locomotievenstraat 5,50.882927,4.7223911,De cli?nt ,John Grisham,No link found,img/Locomotievenstraat 5.jpg
Locomotievenstraat 5,50.882927,4.7223911,Gijzeling,Rom Molemaker,https://www.bol.com/be/nl/p/gijzeling/1001004006274361/,img/Locomotievenstraat 5.jpg
Locomotievenstraat 5,50.882927,4.7223911,Heej Sgatje,Wilma Geldof,https://www.bol.com/be/nl/p/l-i-f-e-heej-sgatje/1001004005445338/,img/Locomotievenstraat 5.jpg
Karel Schurmansstraat 23,50.880849,4.7192502,Het ABC van Baby tot Kleuter,Kind & Gezin,No link found,img/Karel Schurmansstraat 23.jpg
Karel Schurmansstraat 23,50.880849,4.7192502,Cichliden,Robert J. Goldstein,https://www.bol.com/be/nl/p/cichlids-of-the-world/1001004000867389/,img/Karel Schurmansstraat 23.jpg
Karel Schurmansstraat 23,50.880849,4.7192502,Fiona,Catherine Gaskin,https://www.bol.com/be/nl/p/fiona/9200000028623032/,img/Karel Schurmansstraat 23.jpg
Karel Schurmansstraat 23,50.880849,4.7192502,Triptiek,Karin Slaughter,https://www.bol.com/be/nl/p/triptiek/9300000161658929/,img/Karel Schurmansstraat 23.jpg
Karel Schurmansstraat 23,50.880849,4.7192502,Hartslag & Diagnose Besmet,Tess Gerritsen,https://www.bol.com/be/nl/p/hartslag-diagnose-besmet-omnibus/1001004006544687/,img/Karel Schurmansstraat 23.jpg
Karel Schurmansstraat 23,50.880849,4.7192502,Van Muizen en Muizenissen,Denise de Veylder,No link found,img/Karel Schurmansstraat 23.jpg
Karel Schurmansstraat 23,50.880849,4.7192502,La Peste,Albert Camus,https://www.bol.com/be/nl/p/la-peste/1001004000918764/,img/Karel Schurmansstraat 23.jpg
Karel Schurmansstraat 23,50.880849,4.7192502,Kaltwasserfische in Aquarium und Gartenteich,Werner Ladiges,No link found,img/Karel Schurmansstraat 23.jpg
Desire Mellaertsstraat 3,50.883324,4.7276925,De liefdeskunstenaar,Jane Alison,https://www.bol.com/be/nl/p/oude-egyptenaren/1002004000039253/,img/Desire Mellaertsstraat 3.jpg
Desire Mellaertsstraat 3,50.883324,4.7276925,Diane,Herbert Best,https://www.bol.com/be/nl/p/very-best-of-vladimir-cosma/9200000042303493/,img/Desire Mellaertsstraat 3.jpg
Desire Mellaertsstraat 3,50.883324,4.7276925,De H van Adri,Wouter Klootwijk,https://www.bol.com/be/nl/p/de-h-van-adri/9200000093139723/,img/Desire Mellaertsstraat 3.jpg
Desire Mellaertsstraat 3,50.883324,4.7276925,De Atmosfeer,Fabrizio Fabbri,https://www.bol.com/be/nl/p/red-onze-planeet-atmosfeer/1001004002067610/,img/Desire Mellaertsstraat 3.jpg
Desire Mellaertsstraat 3,50.883324,4.7276925,De Nieuwsgierige Hamster: Kijk- en leerboek voor nieuwsgierige kinderen,Wang Shu-Jing,https://www.bol.com/be/nl/p/de-nieuwsgierige-hamster/1001004002059434/,img/Desire Mellaertsstraat 3.jpg
Desire Mellaertsstraat 3,50.883324,4.7276925,Management and Cost Accounting,Colin Drury,https://www.bol.com/be/nl/p/management-and-cost-accounting/9300000006171500/,img/Desire Mellaertsstraat 3.jpg
Desire Mellaertsstraat 3,50.883324,4.7276925,Mannen Rond Clarissa,Rudolf Andrel,https://www.bol.com/be/nl/p/mannen-rond-clarissa/9300000139876258/,img/Desire Mellaertsstraat 3.jpg
Desire Mellaertsstraat 3,50.883324,4.7276925,Zelfbouwantennes,J¨¹rgen Tech,https://www.bol.com/be/nl/p/european-coatings-tech-files-coatings-for-plastics/9200000078734986/,img/Desire Mellaertsstraat 3.jpg
Desire Mellaertsstraat 3,50.883324,4.7276925,Media-ethiek,Huub Evers,https://www.bol.com/be/nl/p/media-ethiek/1001004005388332/,img/Desire Mellaertsstraat 3.jpg
Desire Mellaertsstraat 3,50.883324,4.7276925,De Camerons,Robert Crichton,https://www.bol.com/be/nl/p/ghostbusters-1-2/1002004006572845/,img/Desire Mellaertsstraat 3.jpg
Desire Mellaertsstraat 3,50.883324,4.7276925,Deining om Dorus,Mr. G. Th. Verharen,No link found,img/Desire Mellaertsstraat 3.jpg
Desire Mellaertsstraat 3,50.883324,4.7276925,Elektronica echt niet moeilijk deel 3,Adrian Schommers,https://www.bol.com/be/nl/p/elektronica-echt-niet-moeilijk-1-2-en-3/666814143/,img/Desire Mellaertsstraat 3.jpg
Persilstraat 53,50.904305,4.668932,To Kill a Kingdom,Alexandra Christo,https://www.bol.com/be/nl/p/to-kill-a-kingdom/9200000083123931/,img/Persilstraat 53.jpg
Persilstraat 53,50.904305,4.668932,Ouders en Kinderen,Georges de Corte,https://www.bol.com/be/nl/p/herinneringen-ophalen/1001004002524836/,img/Persilstraat 53.jpg
Persilstraat 53,50.904305,4.668932,De Fox Terrier,Ruud Haak,https://www.bol.com/be/nl/p/onze-hond-handboek-de-jack-russell-terrier/666776219/,img/Persilstraat 53.jpg
Persilstraat 53,50.904305,4.668932,The Model Wife,Julia Llewellyn,https://www.bol.com/be/nl/p/the-model-wife/1001004006114423/,img/Persilstraat 53.jpg
Persilstraat 53,50.904305,4.668932,De Cock en kogels voor een bruid,A.C. Baantjer,https://www.bol.com/be/nl/p/baantjer-40-de-cock-en-kogels-voor-een-bruid/666748918/,img/Persilstraat 53.jpg
Persilstraat 53,50.904305,4.668932,Op de Groei 1,Sofie Dumont,https://www.bol.com/be/nl/p/op-de-groei-2-samen-eten-is-lekker-en-leuk/9200000052813137/,img/Persilstraat 53.jpg
Persilstraat 53,50.904305,4.668932,De Lichtheid van Het Opvoeden,Jan Masschelein,https://www.bol.com/be/nl/p/de-lichtheid-van-het-opvoeden/1001004006306655/,img/Persilstraat 53.jpg
Persilstraat 53,50.904305,4.668932,Impressies van een Nomade,Tom Botte,No link found,img/Persilstraat 53.jpg
Persilstraat 53,50.904305,4.668932,Omgaan met je Schaduw,Connie Zweig,https://www.bol.com/be/nl/p/omgaan-met-je-schaduw/666833520/,img/Persilstraat 53.jpg
Persilstraat 53,50.904305,4.668932,Ready Steady Baby!,NHS Scotland,https://www.bol.com/be/nl/p/ready-steady-baby/9200000032705991/,img/Persilstraat 53.jpg
Persilstraat 53,50.904305,4.668932,Outdoor GPS Navigatie,Rento Ijsenbrant,https://www.bol.com/be/nl/p/outdoor-gps-navigatie-theorie-praktijk/666782620/,img/Persilstraat 53.jpg
Persilstraat 53,50.904305,4.668932,Passion & Poppadoms,Nisha Minhas,No link found,img/Persilstraat 53.jpg
Persilstraat 53,50.904305,4.668932,Beste Marcie,Ilse Peys,https://www.bol.com/be/nl/p/beste-marcie/1001004001555705/,img/Persilstraat 53.jpg
Persilstraat 53,50.904305,4.668932,Des Cannibales,Michel de Montaigne,https://www.bol.com/be/nl/p/des-cannibales/9300000118609610/,img/Persilstraat 53.jpg
Persilstraat 53,50.904305,4.668932,De Knik in de Kern,Roland Walter,No link found,img/Persilstraat 53.jpg
Persilstraat 53,50.904305,4.668932,Dromen Ontcijferd,Fiona Zucker,https://www.bol.com/be/nl/p/dromen-ontcijferd/1001004001543264/,img/Persilstraat 53.jpg
Persilstraat 53,50.904305,4.668932,Lekker Likkebaarden!,Christopher Luff,No link found,img/Persilstraat 53.jpg
Persilstraat 53,50.904305,4.668932,This Lullaby,Sarah Dessen,https://www.bol.com/be/nl/p/this-lullaby/1001004002190642/,img/Persilstraat 53.jpg
Persilstraat 53,50.904305,4.668932,IJsvermaak,Tracy Metz,https://www.bol.com/be/nl/p/ijsvermaak/1001004001531593/,img/Persilstraat 53.jpg
Persilstraat 53,50.904305,4.668932,Dagvlinder (Belle de Jour),Joseph Kessel,https://www.bol.com/be/nl/p/dagvlinder/1001004005163920/,img/Persilstraat 53.jpg
Persilstraat 53,50.904305,4.668932,Kliniek van de Hartstocht,Heinz G. Konsalik,https://www.bol.com/be/nl/p/kliniek-van-de-hartstocht/1001004001510652/,img/Persilstraat 53.jpg
Persilstraat 53,50.904305,4.668932,De Zin van Ziekzijn,R¨¹diger Dahlke,No link found,img/Persilstraat 53.jpg
Persilstraat 53,50.904305,4.668932,Jo Leemans: de vlucht terug,Marianne De Baere,https://www.bol.com/be/nl/p/jo-leemans/9200000049379871/,img/Persilstraat 53.jpg
Persilstraat 53,50.904305,4.668932,Vigdis Gunnarsdochter,Sigrid Undset,https://www.bol.com/be/nl/p/literaria-28-la-saga-de-vigdis/9300000093233196/,img/Persilstraat 53.jpg
Persilstraat 53,50.904305,4.668932,Wij Krijgen een Baby,Lennart Nilsson,https://www.bol.com/be/nl/p/wij-krijgen-een-baby/666802005/,img/Persilstraat 53.jpg
Celestijnenlaan 200C,50.864066,4.675894,It's in the Blood,Lawrence Dallaglio,https://www.bol.com/be/nl/p/it-s-in-the-blood/1001004005885850/,img/Celestijnenlaan 200C.jpg
Celestijnenlaan 200C,50.864066,4.675894,Testament van Taal 2020,Nathan Juda,No link found,img/Celestijnenlaan 200C.jpg
Celestijnenlaan 200C,50.864066,4.675894,English Pronunciation in Use: Self-study and classroom use,Mark Hancock,https://www.bol.com/be/nl/p/english-pronunciation-in-use-int-student-s-book-answers/9200000074353012/,img/Celestijnenlaan 200C.jpg
Celestijnenlaan 200C,50.864066,4.675894,100 Fiches d'Histoire Grecque,Violaine Sebillotte Cuchet,https://www.bol.com/be/nl/p/100-fiches-pour-comprendre-l-histoire-grecque/9300000159090475/,img/Celestijnenlaan 200C.jpg
Celestijnenlaan 200C,50.864066,4.675894,Histoire d'une mouette et du chat qui lui apprit ¨¤ voler,Luis Sep¨²lveda,No link found,img/Celestijnenlaan 200C.jpg
Celestijnenlaan 200C,50.864066,4.675894,Bladvolk,Frieda Meijer-van Rijn,https://www.bol.com/be/nl/p/sprankeltjes/1001004001322974/,img/Celestijnenlaan 200C.jpg
Celestijnenlaan 200C,50.864066,4.675894,Modeling CMT1A and Investigating HDAC Inhibitors as a Therapeutic Strategy,Robert Prior,No link found,img/Celestijnenlaan 200C.jpg
Celestijnenlaan 200C,50.864066,4.675894,Vermakelijk bibliografisch ganzenbord,Alphonsus Maria Joseph Van Buuren,No link found,img/Celestijnenlaan 200C.jpg
Celestijnenlaan 200C,50.864066,4.675894,J'abandonne,Philippe Claudel,https://www.bol.com/be/nl/p/j-abandonne/9200000034640850/,img/Celestijnenlaan 200C.jpg
Celestijnenlaan 200C,50.864066,4.675894,Gens de Dublin,James Joyce,https://www.bol.com/be/nl/p/les-gens-de-dublin/9200000120677953/,img/Celestijnenlaan 200C.jpg
Celestijnenlaan 200C,50.864066,4.675894,Mastering Algorithms with Perl,Jon Orwant,https://www.bol.com/be/nl/p/mastering-algorithms-with-perl/1001004001031231/,img/Celestijnenlaan 200C.jpg
Celestijnenlaan 200C,50.864066,4.675894,Les Pendules,Agatha Christie,https://www.bol.com/be/nl/p/les-pendules/9200000000442485/,img/Celestijnenlaan 200C.jpg
Celestijnenlaan 200C,50.864066,4.675894,Juste avant la nuit,Pierre Charras,https://www.bol.com/be/nl/p/juste-avant-la-nuit/9200000006371127/,img/Celestijnenlaan 200C.jpg
Rijweg 43,50.899064,4.6771395,Faking It,Jenny Crusie,https://www.bol.com/be/nl/p/faking-it/1001004001686301/,img/Rijweg 43.jpg
Rijweg 43,50.899064,4.6771395,De Terugkeer Van Bonanza,Herman Brusselmans,https://www.bol.com/be/nl/p/de-terugkeer-van-bonanza/1001004005773630/,img/Rijweg 43.jpg
Rijweg 43,50.899064,4.6771395,"Zoek... en vind! Prinsessen, fee?n en elfen",Ballon Kids,No link found,img/Rijweg 43.jpg
Rijweg 43,50.899064,4.6771395,KBC 25 jaar in beweging 1998-2023,Koenraad Debackere,No link found,img/Rijweg 43.jpg
Rijweg 43,50.899064,4.6771395,Leren en Onderwijzen: Beheersingsboek,Roger Standaert,https://www.bol.com/be/nl/p/leren-en-onderwijzen-beheersingsboek/666817957/,img/Rijweg 43.jpg
Rijweg 43,50.899064,4.6771395,Didatische Evaluatie,Roland Vandenberghe,No link found,img/Rijweg 43.jpg
Rijweg 43,50.899064,4.6771395,Albert II: De Biografie,Christian Laporte,https://www.bol.com/be/nl/p/albert-ii-de-biografie/1001004002051631/,img/Rijweg 43.jpg
Rijweg 43,50.899064,4.6771395,Leren op school,C.F. van Parreren,https://www.bol.com/be/nl/p/leren-op-school/1001004005096467/,img/Rijweg 43.jpg
Rijweg 43,50.899064,4.6771395,The New Parents' Survival Guide,Wendy Green,https://www.bol.com/be/nl/p/the-new-parents-survival-guide/9200000132440623/,img/Rijweg 43.jpg
Rijweg 43,50.899064,4.6771395,Omtrent Deedee,Hugo Claus,https://www.bol.com/be/nl/p/the-savvy-shopper/1001004005111744/,img/Rijweg 43.jpg
Rijweg 43,50.899064,4.6771395,Leren van volwassenen,"Hendricus Paul Stroomberg,",No link found,img/Rijweg 43.jpg
Rijweg 43,50.899064,4.6771395,The Girl who Kicked the Hornets' Nest,Stieg Larsson,https://www.bol.com/be/nl/p/girl-who-kicked-the-hornets-nest/9200000039947085/,img/Rijweg 43.jpg
Rijweg 43,50.899064,4.6771395,Effectief opleiden in organisaties,Roel Schulting,https://www.bol.com/be/nl/p/effectief-opleiden-in-organisaties/1001004005172449/,img/Rijweg 43.jpg
Rijweg 43,50.899064,4.6771395,Fijne Zondag! 2,Pascal Kerkhove,https://www.bol.com/be/nl/p/fijne-zondag-2/9300000082959581/,img/Rijweg 43.jpg
Rijweg 43,50.899064,4.6771395,Mein Nasch-Balkon,Elisabeth Mecklenburg,https://www.bol.com/be/nl/p/mein-nasch-balkon-obst-und-gemuse-auf-balkon-und-terrasse-erfolgreich-anbauen-und-geniessen/9200000023294341/,img/Rijweg 43.jpg
Rijweg 43,50.899064,4.6771395,Tante Mariette en haar fiets: communicatie voor overheid en socialprofit ,Eric Goubin,https://www.bol.com/be/nl/p/tante-mariette-en-haar-fiets/9200000083670659/,img/Rijweg 43.jpg
Rijweg 43,50.899064,4.6771395,Disney Violetta - Violetta's nieuwe wereld,Deltas,https://www.bol.com/be/nl/p/disney-violetta-violetta-s-nieuwe-wereld-deel-1/9200000031365686/,img/Rijweg 43.jpg
Rijweg 43,50.899064,4.6771395,Het sterrenbeeld van uw kind is waterman,Jack F. Chandu,No link found,img/Rijweg 43.jpg
Rijweg 43,50.899064,4.6771395,Handboek voor kreatief koken: meer dan 1000 recepten,Wpg Uitgevers Belgie ,https://www.bol.com/be/nl/p/handboek-voor-kreatief-koken/1001004005084876/,img/Rijweg 43.jpg
Rijweg 43,50.899064,4.6771395,De mooiste hanging baskets (Stap-voor-stap),Stephanie Donaldson,No link found,img/Rijweg 43.jpg
Rijweg 43,50.899064,4.6771395,Alles over hart en bloedvaten,Alain Deloche,https://www.bol.com/be/nl/p/alles-over-hart-en-bloedvaten/9200000024666080/,img/Rijweg 43.jpg
Rijweg 43,50.899064,4.6771395,Windows 95 voor kinderen deel 2,Addo Stuur,https://www.bol.com/be/nl/p/windows-95-voor-kinderen-deel-2/666819616/,img/Rijweg 43.jpg
Rijweg 43,50.899064,4.6771395,Disney Violetta - Violetta's hart kan niet kiezen ,Deltas,https://www.bol.com/be/nl/p/disney-violetta-violetta-s-hart-kan-niet-kiezen/9200000031365702/,img/Rijweg 43.jpg
Rijweg 43,50.899064,4.6771395,Disney Violetta - Zingen is alles wat ik wil,Deltas,https://www.bol.com/be/nl/p/disney-violetta-3-zingen-is-al-wat-ik-wil/9200000031365748/,img/Rijweg 43.jpg
Rijweg 43,50.899064,4.6771395,Ciske groeit op,Piet Bakker,https://www.bol.com/be/nl/p/ciske-de-rat-de-complete-ciske-trilogie/9300000040121968/,img/Rijweg 43.jpg
Rijweg 43,50.899064,4.6771395,The Girl who Played with Fire,Stieg Larsson,https://www.bol.com/be/nl/p/the-girl-who-played-with-fire/1001004008986743/,img/Rijweg 43.jpg
Rijweg 43,50.899064,4.6771395,Het Koekoeksjong,Brigitte Raskin,https://www.bol.com/be/nl/p/het-koekoeksjong/1001004005144131/,img/Rijweg 43.jpg
Rijweg 43,50.899064,4.6771395,Hoe bereid ik vlees ,Peter Cocquyt,https://www.bol.com/be/nl/p/hoe-bereid-ik-vlees/9200000049039853/,img/Rijweg 43.jpg
Rijweg 43,50.899064,4.6771395,Hamburgers uit het atelier van Big Fernand,Steve Burggraf,https://www.bol.com/be/nl/p/hamburgers/9200000014964244/,img/Rijweg 43.jpg
Rijweg 43,50.899064,4.6771395,Basisbegrippen taalkunde - Morfologie en Syntaxis,Hans Smessaert,https://www.bol.com/be/nl/p/basisbegrippen-taalkunde-morfologie-en-syntaxis/9200000102588119/,img/Rijweg 43.jpg
Rijweg 43,50.899064,4.6771395,Prinses Van Het Pajottenland,Johan Verminnen,https://www.bol.com/be/nl/p/prinses-van-het-pajottenland-me-cd/1001004002112643/,img/Rijweg 43.jpg
Rijweg 43,50.899064,4.6771395,Jan Zonder Vrees - Geheim van Katelyne,Gaston van Camp,https://www.bol.com/be/nl/p/jan-zonder-vrees-geheim-van-katelyne/1001004005088377/,img/Rijweg 43.jpg
Rijweg 43,50.899064,4.6771395,PRAKTISCHE GIDS voor het onderhoud van meer dan 160 kamerplanten,Michel Detreaux,No link found,img/Rijweg 43.jpg
Rijweg 43,50.899064,4.6771395,Pallieter,Felix Timmermans,https://www.bol.com/be/nl/p/pallieter/9200000110145392/,img/Rijweg 43.jpg
Rijweg 43,50.899064,4.6771395,Aufatmen!: F¨¹nf Minuten f¨¹r Entspannung und Energie im Alltag,Jutta Ritschel,No link found,img/Rijweg 43.jpg
Rijweg 43,50.899064,4.6771395,Geldwijzer & Zorg Voor Uw Toekomst,Frida Deceunynck,No link found,img/Rijweg 43.jpg
Rijweg 43,50.899064,4.6771395,De Unieke Smaak Van Mineraalwater ,Michael Mascha,https://www.bol.com/be/nl/p/de-unieke-smaak-van-mineraalwater/1001004006043408/,img/Rijweg 43.jpg
Rijweg 43,50.899064,4.6771395,De Trouwe Joris,Door Nanda,No link found,img/Rijweg 43.jpg
Rijweg 43,50.899064,4.6771395,Pietje Bell is weer aan de gang,Chris van Abkoude,https://www.bol.com/be/nl/p/pietje-bell-is-weer-aan-de-gang-chris-van-abkoude/9300000008475951/,img/Rijweg 43.jpg
Rijweg 43,50.899064,4.6771395,Veertiende Vijfling,Agatha Christie,https://www.bol.com/be/nl/p/veertiende-agatha-christie-vijfling/1001004005120138/,img/Rijweg 43.jpg
Rijweg 43,50.899064,4.6771395,De Spiritualiteit van de Ark,Jean Vanier,https://www.bol.com/be/nl/p/in-broosheid-dragen/1001004001524317/,img/Rijweg 43.jpg
Rijweg 43,50.899064,4.6771395,Aiki: De eeuwenoude Japanse kunst van het ademhalen,Jean-Philipe Desbordes,https://www.bol.com/be/nl/p/aiki/9200000094021590/,img/Rijweg 43.jpg
Rijweg 43,50.899064,4.6771395,Teddy beertjes lezen gekke versjes,Mike Ricketts,https://www.bol.com/be/nl/p/teddy-beertjes-lezen-gekke-versjes/1001004001530876/,img/Rijweg 43.jpg
Rijweg 43,50.899064,4.6771395,Julia,Anne Fortier,https://www.bol.com/be/nl/p/julia/9200000033164011/,img/Rijweg 43.jpg
Rijweg 43,50.899064,4.6771395,De Illusie van Alleenzijn,Simon van Booy,https://www.bol.com/be/nl/p/de-illusie-van-alleenzijn/9200000011324089/,img/Rijweg 43.jpg
Rijweg 43,50.899064,4.6771395,Liefde en Verlangen in Bombay,Vikram Chandra,https://www.bol.com/be/nl/p/liefde-en-verlangen-in-bombay/666759658/,img/Rijweg 43.jpg
Rijweg 43,50.899064,4.6771395,Bloemen voor het Interieur: Geschikt & Gebonden 2,Pieter Porters,https://www.bol.com/be/nl/p/bloemen-voor-het-interieur/666878355/,img/Rijweg 43.jpg
Rijweg 43,50.899064,4.6771395,Black,Dirk Bracke,https://www.bol.com/be/nl/p/black/9300000050855388/,img/Rijweg 43.jpg
Rijweg 43,50.899064,4.6771395,Comme convenu! Cours de communication fran?aise,Isabelle Werbrouck,No link found,img/Rijweg 43.jpg
Rijweg 43,50.899064,4.6771395,Ontwapend,Koen Metsu,https://www.bol.com/be/nl/p/ontwapend/9300000018474811/,img/Rijweg 43.jpg
Waversebaan 68,50.8641609,4.6933568,100 X 100,Truus Groen,https://www.bol.com/be/nl/p/100-x-100/1001004005595879/,img/Waversebaan 68.jpg
Waversebaan 68,50.8641609,4.6933568,Pijn,Frank T. Vertosick,https://www.bol.com/be/nl/p/pijn-de-wetenschap-van-het-lijden/666854980/,img/Waversebaan 68.jpg
Waversebaan 68,50.8641609,4.6933568,Zand Erover?,Roger Burggraeve,https://www.bol.com/be/nl/p/zand-erover-r-burggraeve-j-de-tavernier-d-pollefeyt/666869628/,img/Waversebaan 68.jpg
Waversebaan 68,50.8641609,4.6933568,"Nu jij er niet meer bent, Rouwen met kinderen en tieners",Claire Vanden Abbeele,https://www.bol.com/be/nl/p/nu-jij-er-niet-meer-bent/1001004001322855/,img/Waversebaan 68.jpg
Waversebaan 68,50.8641609,4.6933568,B. S. Johnson Omnibus,B. S. Johnson,https://www.bol.com/be/nl/p/gantz-omnibus-volume-3/9200000097203754/,img/Waversebaan 68.jpg
Waversebaan 68,50.8641609,4.6933568,Jane Eyre,Charlotte Bronte,https://www.bol.com/be/nl/p/jane-eyre/9200000081142442/,img/Waversebaan 68.jpg
Waversebaan 68,50.8641609,4.6933568,Ik en mijn speelman,Aart van der leeuw ,https://www.bol.com/be/nl/p/ik-en-myn-speelman/9200000048681110/,img/Waversebaan 68.jpg
Waversebaan 68,50.8641609,4.6933568,Overboord,Hank Searls,https://www.bol.com/be/nl/p/the-delicate-delinquent/9300000161623498/,img/Waversebaan 68.jpg
Waversebaan 68,50.8641609,4.6933568,Valere Depauw omnibus,Valere Depauw,https://www.bol.com/be/nl/p/gulle-lach-omnibus-3/1001004005127670/,img/Waversebaan 68.jpg
Waversebaan 68,50.8641609,4.6933568,Familie van Licht,B. Marciniak,https://www.bol.com/be/nl/p/familie-van-licht/666842014/,img/Waversebaan 68.jpg
Waversebaan 68,50.8641609,4.6933568,De tuin van je leven,Malcolm Bosse,https://www.bol.com/be/nl/p/tuin-van-je-leven-de/1001004005105921/,img/Waversebaan 68.jpg
Waversebaan 68,50.8641609,4.6933568,Overleven met chemotherapie,Mathieu Snykers,https://www.bol.com/be/nl/p/overleven-met-chemotherapie/666816681/,img/Waversebaan 68.jpg
Waversebaan 68,50.8641609,4.6933568,Toeren & Tafelen: Griekenland het vasteland,KBC,No link found,img/Waversebaan 68.jpg
Waversebaan 68,50.8641609,4.6933568,Mama,Terry McMillan,https://www.bol.com/be/nl/p/mama/1001004001544959/,img/Waversebaan 68.jpg
Waversebaan 68,50.8641609,4.6933568,Gigi,Judith Krantz,https://www.bol.com/be/nl/p/judith-krantz-5-x-hardcover-1-frederique-2-justine-3-gigi-4-dazzle-5-scruples/9300000172480155/,img/Waversebaan 68.jpg
Waversebaan 68,50.8641609,4.6933568,De wens der eeuwen,E.G.White,https://www.bol.com/be/nl/p/wens-der-eeuwen/9300000139731107/,img/Waversebaan 68.jpg
Waversebaan 68,50.8641609,4.6933568,The marseille caper,Perter Mayle,https://www.bol.com/be/nl/p/the-marseille-caper/9200000011248990/,img/Waversebaan 68.jpg
Waversebaan 68,50.8641609,4.6933568,La lettre ecarlate,Nathaniel Hawthorne,https://www.bol.com/be/nl/p/la-lettre-ecarlate-the-scarlet-letter-version-bilingue-francais-anglais/9200000081379391/,img/Waversebaan 68.jpg
Waversebaan 68,50.8641609,4.6933568,La nuit africaine,Olive Schreiner,No link found,img/Waversebaan 68.jpg
Waversebaan 68,50.8641609,4.6933568,Nederlanden zijn bewoners,Edmondo de Amicis,No link found,img/Waversebaan 68.jpg
Waversebaan 68,50.8641609,4.6933568,Ik zal overleven,Jerri Nielsen,https://www.bol.com/be/nl/p/ik-zal-overleven/666875881/,img/Waversebaan 68.jpg
Waversebaan 68,50.8641609,4.6933568,...Ik treed het leven binnen,Roger Troisfontaines,No link found,img/Waversebaan 68.jpg
Waversebaan 68,50.8641609,4.6933568,Christ in the  Psalms,Patrick Henry Reardon,https://www.bol.com/be/nl/p/christ-in-the-psalms/1001004001643880/,img/Waversebaan 68.jpg
Groenveldstraat 42,50.8745267,4.6834789,Het handboek voor internet intranet technologie,Jeroen Vanheste,https://www.bol.com/be/nl/p/het-handboek-voor-internet-en-intranet-technologie/1001004000571758/,img/Groenveldstraat 42.jpg
Groenveldstraat 42,50.8745267,4.6834789,Het complete handboek internet,Honeycutt Pike,No link found,img/Groenveldstraat 42.jpg
Groenveldstraat 42,50.8745267,4.6834789,It-Servicemanagement volgens ITIL,Peter Janssen,https://www.bol.com/be/nl/p/it-servicemanagement-volgens-itil/1001004001751199/,img/Groenveldstraat 42.jpg
Groenveldstraat 42,50.8745267,4.6834789,Een dood vogeltje,Diane Broeckhoven,https://www.bol.com/be/nl/p/dood-vogeltje/666865650/,img/Groenveldstraat 42.jpg
Groenveldstraat 42,50.8745267,4.6834789,Wij hebben parkinson,Mieke de Booser ,https://www.bol.com/be/nl/p/wij-hebben-parkinson/1001004006866622/,img/Groenveldstraat 42.jpg
Groenveldstraat 42,50.8745267,4.6834789,Zwarte ogen,Dennis Potter,https://www.bol.com/be/nl/p/zwarte-ogen/1001004001527457/,img/Groenveldstraat 42.jpg
Groenveldstraat 42,50.8745267,4.6834789,Ghosts of the nile,Cheryl Harness,https://www.bol.com/be/nl/p/ghosts-of-the-nile/1001004002243932/,img/Groenveldstraat 42.jpg
Groenveldstraat 42,50.8745267,4.6834789,Wilt,Tom Sharpe,https://www.bol.com/be/nl/p/wilt/1001004001689556/,img/Groenveldstraat 42.jpg
Bankstraat 72,50.8762115,4.6874124,Waar Anders?,Het Hageland,https://www.bol.com/be/nl/p/k3-memo/9200000054685654/,img/Bankstraat 72.jpg
Bankstraat 72,50.8762115,4.6874124,Isabelle op klompen,Thierry La Fronde,No link found,img/Bankstraat 72.jpg
Bankstraat 72,50.8762115,4.6874124,Op lange latten,Maria De Vleeschouwer-Verbraeken,No link found,img/Bankstraat 72.jpg
Bankstraat 72,50.8762115,4.6874124,De jacht op de kaipan,Henry de Monfreid,No link found,img/Bankstraat 72.jpg
Bankstraat 72,50.8762115,4.6874124,De gelukkige mens,Zsigmond Moricz,No link found,img/Bankstraat 72.jpg
Bankstraat 72,50.8762115,4.6874124,Lukacs,Fritz J. Raddatz,https://www.bol.com/be/nl/p/luka-cs/9200000040797000/,img/Bankstraat 72.jpg
Bankstraat 72,50.8762115,4.6874124,Salvare le modifiche prima di chiudere?,Lia Celi,No link found,img/Bankstraat 72.jpg
Bankstraat 72,50.8762115,4.6874124,Natuurkunde 1a,Delaruelle A.I. Claes,No link found,img/Bankstraat 72.jpg
Bankstraat 72,50.8762115,4.6874124,Natuurkunde 1b,Delaruelle A.I. Claes,No link found,img/Bankstraat 72.jpg
Bankstraat 72,50.8762115,4.6874124,Natuurkunde 2a,Delaruelle A.I. Claes,No link found,img/Bankstraat 72.jpg
Bankstraat 72,50.8762115,4.6874124,Natuurkunde 2b,Delaruelle A.I. Claes,No link found,img/Bankstraat 72.jpg
Bankstraat 72,50.8762115,4.6874124,Baby-en kinderverzorging,Benjamin Spock ,https://www.bol.com/be/nl/p/baby-en-kinderverzorging-opvoeding/1001004004965844/,img/Bankstraat 72.jpg
Bankstraat 72,50.8762115,4.6874124,5 Dagen in Parijs,Danielle Steel,https://www.bol.com/be/nl/p/vijf-dagen-in-parijs/9200000075681221/,img/Bankstraat 72.jpg
Bankstraat 72,50.8762115,4.6874124,Cro-Magnon,Jef Geeraerts,https://www.bol.com/be/nl/p/cro-magnon/1001004011332395/,img/Bankstraat 72.jpg
Bankstraat 72,50.8762115,4.6874124,"Rijn en maas, kunst en cultuur 800-1400",Ministerie van Nationale Opvoeding,No link found,img/Bankstraat 72.jpg
Groeneweg 48,50.869753,4.663364,Encyclopendie,Tom Premier,https://www.bol.com/be/nl/p/superior-iron-man-vol-2-stark-contrast-premiere-hc/9200000040409197/,img/Groeneweg 48.jpg
Groeneweg 48,50.869753,4.663364,De dag na morgen,Allan Folsom,https://www.bol.com/be/nl/p/de-dag-na-morgen/9200000026526251/,img/Groeneweg 48.jpg
Groeneweg 48,50.869753,4.663364,Het bernini mysterie,Dan Brown,https://www.bol.com/be/nl/p/robert-langdon-1-het-bernini-mysterie/9200000059528291/,img/Groeneweg 48.jpg
Groeneweg 48,50.869753,4.663364,Fenne trilogie,Henny Thijssing-Boer,https://www.bol.com/be/nl/p/fenne-trilogie-1-eens-komt-het-geluk/9300000008059876/,img/Groeneweg 48.jpg
Groeneweg 48,50.869753,4.663364,Het verre paradijs,M. M. Kaye,https://www.bol.com/be/nl/p/het-verre-paradijs/1001004005125166/,img/Groeneweg 48.jpg
Groeneweg 48,50.869753,4.663364,Zemindar,Valerie Fitzgerald,https://www.bol.com/be/nl/p/zemindar/9200000027777556/,img/Groeneweg 48.jpg
Groeneweg 48,50.869753,4.663364,De hemelboom trilogie,Edith Pargeter,https://www.bol.com/be/nl/p/de-hemelboom-trilogie-de-hemelboom-de-groene-tak-het-scharlaken-zaad/1001004001510707/,img/Groeneweg 48.jpg
Groeneweg 48,50.869753,4.663364,Het lason dubbelspel,Robert Ludlum,https://www.bol.com/be/nl/p/jason-bourne-2-het-bourne-dubbelspel/9300000048977867/,img/Groeneweg 48.jpg
Groeneweg 48,50.869753,4.663364,De nacht can de honden,Stefan Boonen,https://www.bol.com/be/nl/p/de-nachten-van-de-honden/1001004006872387/,img/Groeneweg 48.jpg
Groeneweg 48,50.869753,4.663364,Geen kooi voor takka,Detty verreydt,https://www.bol.com/be/nl/p/geen-kooi-voor-takka/1001004005166882/,img/Groeneweg 48.jpg
Groeneweg 48,50.869753,4.663364,Je chante avec Camille,Nancy Delvaux,No link found,img/Groeneweg 48.jpg
Ravenstraat 92,50.879175,4.7102246,"Liefde is sterker dan de dood, Een hemel vol sterren",Konsalik Heinz G.,No link found,img/Ravenstraat 92.jpg
Ravenstraat 92,50.879175,4.7102246,La baleine blanche,Jacques Lanzmann,https://www.bol.com/be/nl/p/la-baleine-blanche/9200000073266365/,img/Ravenstraat 92.jpg
Ravenstraat 92,50.879175,4.7102246,Voortgeschopt als een steen,Helene Nolthenius,https://www.bol.com/be/nl/p/voortgeschopt-als-een-steen/666838201/,img/Ravenstraat 92.jpg
Ravenstraat 92,50.879175,4.7102246,Kiboko,Daniel P.Mannix,No link found,img/Ravenstraat 92.jpg
Ravenstraat 92,50.879175,4.7102246,Peyton place,Grace Metalious,https://www.bol.com/be/nl/p/terug-naar-peyton-place/9200000045904440/,img/Ravenstraat 92.jpg
Ravenstraat 92,50.879175,4.7102246,Der Holcroft-vertrag,Robert Ludlum,https://www.bol.com/be/nl/p/der-holcroft-vertrag/9200000033076538/,img/Ravenstraat 92.jpg
Ravenstraat 92,50.879175,4.7102246,Een huis in I talie,Lisa st aubin de teran,No link found,img/Ravenstraat 92.jpg
Ravenstraat 92,50.879175,4.7102246,The parisifal mosaic,Robert Ludlum,https://www.bol.com/be/nl/p/the-parsifal-mosaic/1001004002402825/,img/Ravenstraat 92.jpg
Ravenstraat 92,50.879175,4.7102246,L' arte de mangiar bene,Artusi,https://www.bol.com/be/nl/p/la-scienza-in-cucina-e-l-arte-di-mangiare-bene/9200000051567317/,img/Ravenstraat 92.jpg
Ravenstraat 92,50.879175,4.7102246,Het geheim van de kaarten,Jostein Gaarder,https://www.bol.com/be/nl/p/het-geheim-van-de-kaarten/666772194/,img/Ravenstraat 92.jpg
Ravenstraat 92,50.879175,4.7102246,Een vrouw met negen levens,Isabeth Marain,https://www.bol.com/be/nl/p/een-vrouw-met-negen-levens/1001004002729201/,img/Ravenstraat 92.jpg
Ravenstraat 92,50.879175,4.7102246,Die scorpio-illusion,Robert Ludlum,https://www.bol.com/be/nl/p/die-scorpio-illusion/9200000033106310/,img/Ravenstraat 92.jpg
Ravenstraat 92,50.879175,4.7102246,Ik schreeuwlelijk,Youp van 't Hek,https://www.bol.com/be/nl/p/ik-schreeuwlelijk/666778445/,img/Ravenstraat 92.jpg
Ravenstraat 92,50.879175,4.7102246,Der wachsame traumer,John Le Carre,https://www.bol.com/be/nl/p/der-wachsame-traumer/9200000036283056/,img/Ravenstraat 92.jpg
Ravenstraat 92,50.879175,4.7102246,Heinzrobertschiette,Romano Guardini,https://www.bol.com/be/nl/p/religiose-gestalten-in-dostojewskijs-werk/9300000035309145/,img/Ravenstraat 92.jpg
Ravenstraat 92,50.879175,4.7102246,De zondag gisteren vandaag altijd,Guardini,No link found,img/Ravenstraat 92.jpg
Ravenstraat 92,50.879175,4.7102246,Psycho,Alfred Hitchcock,https://www.bol.com/be/nl/p/psycho/9300000035004086/,img/Ravenstraat 92.jpg
Ravenstraat 92,50.879175,4.7102246,G. K.Chesterton,Father Brown,https://www.bol.com/be/nl/p/the-complete-father-brown-stories/9300000002267745/,img/Ravenstraat 92.jpg
Ravenstraat 92,50.879175,4.7102246,De Avonjurier,Courths-Mahler,https://www.bol.com/be/nl/p/la-pupille-du-roi-louis-ii-de-baviere/9300000032317777/,img/Ravenstraat 92.jpg
Ravenstraat 92,50.879175,4.7102246,Natriumklorid ,Jussi Adler-Olsen,https://www.bol.com/be/nl/p/natrium-klorid/9300000133632274/,img/Ravenstraat 92.jpg
Goswin lll Laan 15-9,50.8710044,4.6689977,Het Mysterie,Marianne Fredriksson,https://www.bol.com/be/nl/p/het-mysterie/1001004005017005/,img/Goswin lll Laan 15-9.jpg
Goswin lll Laan 15-9,50.8710044,4.6689977,Tranen Over Shanghai,Natasha Peters,https://www.bol.com/be/nl/p/tranen-over-shanghai/9200000035026661/,img/Goswin lll Laan 15-9.jpg
Goswin lll Laan 15-9,50.8710044,4.6689977,Mobiele Minnaars,Anna Davis,https://www.bol.com/be/nl/p/mobiele-minnaars/1001004001807842/,img/Goswin lll Laan 15-9.jpg
Goswin lll Laan 15-9,50.8710044,4.6689977,The Great Hunt,Robert Jordan,https://www.bol.com/be/nl/p/the-wheel-of-time-2-the-great-hunt/1001004001381186/,img/Goswin lll Laan 15-9.jpg
Goswin lll Laan 15-9,50.8710044,4.6689977,De Blik van Bourlon,Hans Bourlon,https://www.bol.com/be/nl/p/de-blik-van-bourlon/9200000072444557/,img/Goswin lll Laan 15-9.jpg
Goswin lll Laan 15-9,50.8710044,4.6689977,Meisje Niemand,Tomek Tryzna,https://www.bol.com/be/nl/p/meisje-niemand-t-tryzna/666823000/,img/Goswin lll Laan 15-9.jpg
Goswin lll Laan 15-9,50.8710044,4.6689977,Een band voor het leven,Courths Mahler,No link found,img/Goswin lll Laan 15-9.jpg
Goswin lll Laan 15-9,50.8710044,4.6689977,Spel met de dood,Necil Shute,https://www.bol.com/be/nl/p/spel-met-de-dood/1001004005166743/,img/Goswin lll Laan 15-9.jpg
Goswin lll Laan 15-9,50.8710044,4.6689977,Iemand als jij,Cathy Kelly,https://www.bol.com/be/nl/p/iemand-als-jij/9200000010218014/,img/Goswin lll Laan 15-9.jpg
Goswin lll Laan 15-9,50.8710044,4.6689977,Marianne,Juliette Benzoni,https://www.bol.com/be/nl/p/hors-collection-5-marianne-tome-5-les-lauriers-de-flammes/9200000034210348/,img/Goswin lll Laan 15-9.jpg
Goswin lll Laan 15-9,50.8710044,4.6689977,Een spoor van tederheid,Frank Yeily,No link found,img/Goswin lll Laan 15-9.jpg
Goswin lll Laan 15-9,50.8710044,4.6689977,Nethergate,Norah Lofts,https://www.bol.com/be/nl/p/nethergate/9200000010086906/,img/Goswin lll Laan 15-9.jpg
Goswin lll Laan 15-9,50.8710044,4.6689977,Penmarric,Susan Howatch,https://www.bol.com/be/nl/p/penmarric/9200000011604994/,img/Goswin lll Laan 15-9.jpg
Goswin lll Laan 15-9,50.8710044,4.6689977,Theet 77,Herman Brussemans,https://www.bol.com/be/nl/p/theet-77/9300000126038404/,img/Goswin lll Laan 15-9.jpg
Goswin lll Laan 15-9,50.8710044,4.6689977,Kruimels van de tafel,Theo Willemen,No link found,img/Goswin lll Laan 15-9.jpg
Goswin lll Laan 15-9,50.8710044,4.6689977,Goswin lll Laan,Kunst en Beschaving,No link found,img/Goswin lll Laan 15-9.jpg
Goswin lll Laan 15-9,50.8710044,4.6689977,Diamant,Jef Geeraerts,https://www.bol.com/be/nl/p/dossier-k/1001004011369359/,img/Goswin lll Laan 15-9.jpg
Goswin lll Laan 15-9,50.8710044,4.6689977,Delaatste Voorstelling,Bert vander Veer,No link found,img/Goswin lll Laan 15-9.jpg
Goswin lll Laan 15-9,50.8710044,4.6689977,Jeugdomnibus,Aster Berkhof,https://www.bol.com/be/nl/p/3-jeugdomnibus/9200000048439480/,img/Goswin lll Laan 15-9.jpg
Goswin lll Laan 15-9,50.8710044,4.6689977,Princess Daisy,Judith Krantz,https://www.bol.com/be/nl/p/princess-daisy/9200000051737860/,img/Goswin lll Laan 15-9.jpg
Goswin lll Laan 15-9,50.8710044,4.6689977,Het Uitgestelde Paradijs,John Mortimer,https://www.bol.com/be/nl/p/het-uitgestelde-paradijs/1001004001549296/,img/Goswin lll Laan 15-9.jpg
Goswin lll Laan 15-9,50.8710044,4.6689977,Het Liefdeskomplot,Konsalik Heinz G.,https://www.bol.com/be/nl/p/het-laatste-lied-van-de-steppe/1001004005169934/,img/Goswin lll Laan 15-9.jpg
Goswin lll Laan 15-9,50.8710044,4.6689977,De weg van Eenvoud,Moeder Teresa,https://www.bol.com/be/nl/p/de-weg-van-eenvoud/666799082/,img/Goswin lll Laan 15-9.jpg
Goswin lll Laan 15-9,50.8710044,4.6689977,Het Spel,Elle Kennedy,https://www.bol.com/be/nl/p/het-spel/9300000027333325/,img/Goswin lll Laan 15-9.jpg
Goswin lll Laan 15-9,50.8710044,4.6689977,De wraak van het duivelse boek,Tiener Bibliotheek,https://www.bol.com/be/nl/p/de-wraak-van-het-duivelse-boek-ann-m-martin/666796168/,img/Goswin lll Laan 15-9.jpg
Goswin lll Laan 15-9,50.8710044,4.6689977,De Melody omnibus,Virginia Andrews,https://www.bol.com/be/nl/p/de-melody-omnibus/1001004002134671/,img/Goswin lll Laan 15-9.jpg
Goswin lll Laan 15-9,50.8710044,4.6689977,Een schuilplaatsvoor het hart,Catherine Cookson,https://www.bol.com/be/nl/p/een-schuilplaats-voor-het-hart-catherine-cookson-isbn9010051706/9300000024193839/,img/Goswin lll Laan 15-9.jpg
Goswin lll Laan 15-9,50.8710044,4.6689977,Hartsvriendinnen,Susan Oudot,https://www.bol.com/be/nl/p/hartsvriendinnen-voor-altijd/9200000101484439/,img/Goswin lll Laan 15-9.jpg
Goswin lll Laan 15-9,50.8710044,4.6689977,Olav Audunszoon op Hestviken,Sigrid Undset,https://www.bol.com/be/nl/p/olav-audunszoon-op-hestviken/9200000049415933/,img/Goswin lll Laan 15-9.jpg
Goswin lll Laan 15-9,50.8710044,4.6689977,Een Verschrikkelijke Schoonheid,Libba Bray,https://www.bol.com/be/nl/p/een-verschrikkelijke-schoonheid/1001004010224357/,img/Goswin lll Laan 15-9.jpg
Goswin lll Laan 15-9,50.8710044,4.6689977,Het Marco-Effect,Jussi Adler-Olsen,https://www.bol.com/be/nl/p/het-marco-effect/9200000102177708/,img/Goswin lll Laan 15-9.jpg
Goswin lll Laan 15-9,50.8710044,4.6689977,Alsbloesem in de stormwind,Catherine Cookson,https://www.bol.com/be/nl/p/als-bloesem-in-de-stormwind/1001004005089908/,img/Goswin lll Laan 15-9.jpg
Goswin lll Laan 15-9,50.8710044,4.6689977,Gestolen hartstocht,Johanna Lindsey,https://www.bol.com/be/nl/p/gestolen-hartstocht/1001004001534858/,img/Goswin lll Laan 15-9.jpg
Goswin lll Laan 15-9,50.8710044,4.6689977,Verscheurd door het Verleden,Judith McNaught,https://www.bol.com/be/nl/p/verscheurd-door-het-verleden/1001004001534946/,img/Goswin lll Laan 15-9.jpg
Goswin lll Laan 15-9,50.8710044,4.6689977,Ierse Kitty,Norma Lee Clark,No link found,img/Goswin lll Laan 15-9.jpg
Goswin lll Laan 15-9,50.8710044,4.6689977,Doorgang,David Mitchell,https://www.bol.com/be/nl/p/doorgang/9200000045904582/,img/Goswin lll Laan 15-9.jpg
Goswin lll Laan 15-9,50.8710044,4.6689977,Tiny richt een 'club' op,Theuermeister,https://www.bol.com/be/nl/p/tiny-richt-een-club-op/1001004005093849/,img/Goswin lll Laan 15-9.jpg
Goswin lll Laan 15-9,50.8710044,4.6689977,Een jas met kogelgaten,Todd Nettleton,No link found,img/Goswin lll Laan 15-9.jpg
Goswin lll Laan 15-9,50.8710044,4.6689977,De macht van een vrouw,Barbara Taylor Bradford,https://www.bol.com/be/nl/p/harte-saga-001-de-macht-van-een-vrouw/1001004002725933/,img/Goswin lll Laan 15-9.jpg
Goswin lll Laan 15-9,50.8710044,4.6689977,Sherlock Holmes - De hond van Baskerville,A. Conan Doyle,https://www.bol.com/be/nl/p/sherlock-holmes-3-de-hond-van-de-baskervilles/9200000050046170/,img/Goswin lll Laan 15-9.jpg
"Wisselbox, G. Vander Lindenstraat 8",50.8690901,4.7002504,De Grote Verkilling,Geert van Istendael,https://www.bol.com/be/nl/p/de-grote-verkilling/9200000108570676/,"img/Wisselbox, G. Vander Lindenstraat 8.jpg"
"Wisselbox, G. Vander Lindenstraat 8",50.8690901,4.7002504,Rusteloos Land,Belinda Bauer,https://www.bol.com/be/nl/p/de-exmoor-trilogie-1-rusteloos-land/1001004010655169/,"img/Wisselbox, G. Vander Lindenstraat 8.jpg"
"Wisselbox, G. Vander Lindenstraat 8",50.8690901,4.7002504,Pour Soigner L'enfant Psychotique,Jacques Hochma,No link found,"img/Wisselbox, G. Vander Lindenstraat 8.jpg"
"Wisselbox, G. Vander Lindenstraat 8",50.8690901,4.7002504,De Zeshoeksverhouding,William Sutcliffe,https://www.bol.com/be/nl/p/het-dievencircus-en-de-grote-verdwijntruc/9200000029287338/,"img/Wisselbox, G. Vander Lindenstraat 8.jpg"
"Wisselbox, G. Vander Lindenstraat 8",50.8690901,4.7002504,Adolphe,Benjamin Constant,https://www.bol.com/be/nl/p/adolphe/9200000018252375/,"img/Wisselbox, G. Vander Lindenstraat 8.jpg"
"Wisselbox, G. Vander Lindenstraat 8",50.8690901,4.7002504,Rijke Meiden,Youp van 't Hek,https://www.bol.com/be/nl/p/rijke-meiden/9300000135568983/,"img/Wisselbox, G. Vander Lindenstraat 8.jpg"
"Wisselbox, G. Vander Lindenstraat 8",50.8690901,4.7002504,De Eeuwige Bron,Ayn Rand,https://www.bol.com/be/nl/p/de-eeuwige-bron/9200000047691621/,"img/Wisselbox, G. Vander Lindenstraat 8.jpg"
"Wisselbox, G. Vander Lindenstraat 8",50.8690901,4.7002504,De stilte van de sneeuw,Brigitte aubert,https://www.bol.com/be/nl/p/de-stilte-van-de-sneeuw/666884852/,"img/Wisselbox, G. Vander Lindenstraat 8.jpg"
"Wisselbox, G. Vander Lindenstraat 8",50.8690901,4.7002504,Grip,Stephan Enter,https://www.bol.com/be/nl/p/grip/1001004011449287/,"img/Wisselbox, G. Vander Lindenstraat 8.jpg"
"Wisselbox, G. Vander Lindenstraat 8",50.8690901,4.7002504,The Problem of Pain,C.S. Lewis,https://www.bol.com/be/nl/p/cs-lewis-study-the-problem-of-pain-study-guide/9200000096706228/,"img/Wisselbox, G. Vander Lindenstraat 8.jpg"
"Wisselbox, G. Vander Lindenstraat 8",50.8690901,4.7002504,I'm the King of the Castle,Susan Hill,https://www.bol.com/be/nl/p/i-m-the-king-of-the-castle/9200000025099139/,"img/Wisselbox, G. Vander Lindenstraat 8.jpg"
"Wisselbox, G. Vander Lindenstraat 8",50.8690901,4.7002504,"Eat, Pray, Love",Elizabeth Gilbert,https://www.bol.com/be/nl/p/eat-pray-love/1001004005442423/,"img/Wisselbox, G. Vander Lindenstraat 8.jpg"
"Wisselbox, G. Vander Lindenstraat 8",50.8690901,4.7002504,A Perfect Spy,John Le Carre,https://www.bol.com/be/nl/p/a-perfect-spy/9200000092085390/,"img/Wisselbox, G. Vander Lindenstraat 8.jpg"
"Wisselbox, G. Vander Lindenstraat 8",50.8690901,4.7002504,De Laatste Samenzweerder,Peter Stothard,https://www.bol.com/be/nl/p/de-laatste-samenzweerder/9300000019087999/,"img/Wisselbox, G. Vander Lindenstraat 8.jpg"
"Wisselbox, G. Vander Lindenstraat 8",50.8690901,4.7002504,Varken vermist,Tessa Krailing,https://www.bol.com/be/nl/p/varken-vermist/666789389/,"img/Wisselbox, G. Vander Lindenstraat 8.jpg"
"Wisselbox, G. Vander Lindenstraat 8",50.8690901,4.7002504,Slang ontsnapt,Tessa Krailing,No link found,"img/Wisselbox, G. Vander Lindenstraat 8.jpg"
"Wisselbox, G. Vander Lindenstraat 8",50.8690901,4.7002504,drie vrouwen,lisa taddeo,https://www.bol.com/be/nl/p/drie-vrouwen/9200000108570885/,"img/Wisselbox, G. Vander Lindenstraat 8.jpg"
"Wisselbox, G. Vander Lindenstraat 8",50.8690901,4.7002504,De Overlevenden,Jane Harper,https://www.bol.com/be/nl/p/de-overlevenden/9300000017935176/,"img/Wisselbox, G. Vander Lindenstraat 8.jpg"
"Wisselbox, G. Vander Lindenstraat 8",50.8690901,4.7002504,De Man Van St.Petersburg,Ken Follett,https://www.bol.com/be/nl/p/de-man-van-st-petersburg/1001004005105307/,"img/Wisselbox, G. Vander Lindenstraat 8.jpg"
"Wisselbox, G. Vander Lindenstraat 8",50.8690901,4.7002504,Census,Jesse Ball,https://www.bol.com/be/nl/p/census/9200000095628537/,"img/Wisselbox, G. Vander Lindenstraat 8.jpg"
"Wisselbox, G. Vander Lindenstraat 8",50.8690901,4.7002504,Keromar,Louis De Groof,https://www.bol.com/be/nl/p/1-tv-feuilleton-tim/9200000049311808/,"img/Wisselbox, G. Vander Lindenstraat 8.jpg"
"Wisselbox, G. Vander Lindenstraat 8",50.8690901,4.7002504,Wreck This Journal,Keri Smith,https://www.bol.com/be/nl/p/wreck-this-journal/9200000009896914/,"img/Wisselbox, G. Vander Lindenstraat 8.jpg"
"Wisselbox, G. Vander Lindenstraat 8",50.8690901,4.7002504,"Uit het hoofd, in het hoofd",Willo Gonnissen,No link found,"img/Wisselbox, G. Vander Lindenstraat 8.jpg"
"Wisselbox, G. Vander Lindenstraat 8",50.8690901,4.7002504,De Insluiper,John Sandford,https://www.bol.com/be/nl/p/de-insluiper/1001004001511374/,"img/Wisselbox, G. Vander Lindenstraat 8.jpg"
Albert Giraudstraat 28,50.8707402,4.6982059,Danskriebels,Kapitein Winokio,https://www.bol.com/be/nl/p/de-zomer-van-kapitein-winokio/9200000011188531/,img/Albert Giraudstraat 28.jpg
Albert Giraudstraat 28,50.8707402,4.6982059,Laten wij aanbidden,Ann-Marie MacDonald,https://www.bol.com/be/nl/p/laten-wij-aanbidden/666837657/,img/Albert Giraudstraat 28.jpg
Albert Giraudstraat 28,50.8707402,4.6982059,De Stille Overname,Noreena Hertz,https://www.bol.com/be/nl/p/stille-overname/1001004001461829/,img/Albert Giraudstraat 28.jpg
Albert Giraudstraat 28,50.8707402,4.6982059,Die Schworers,Marc Zollinger,https://www.bol.com/be/nl/p/die-schworers/1001004008491517/,img/Albert Giraudstraat 28.jpg
Albert Giraudstraat 28,50.8707402,4.6982059,Darth Paper Strikes Back,Tom Angleberger,https://www.bol.com/be/nl/p/origami-yoda-2-darth-paper-strikes-back/9200000046109271/,img/Albert Giraudstraat 28.jpg
Albert Giraudstraat 28,50.8707402,4.6982059,Harlequin,Bernard Cornwell,https://www.bol.com/be/nl/p/grail-quest-vol-1-harlequin/1001004006443824/,img/Albert Giraudstraat 28.jpg
Albert Giraudstraat 28,50.8707402,4.6982059,"Through A Glass, darkly",Donna Leon,https://www.bol.com/be/nl/p/through-a-glass-darkly/1001004002714108/,img/Albert Giraudstraat 28.jpg
Albert Giraudstraat 28,50.8707402,4.6982059,The Van,Roddy Doyle,https://www.bol.com/be/nl/p/the-van/1001004000927760/,img/Albert Giraudstraat 28.jpg
Albert Giraudstraat 28,50.8707402,4.6982059,A Death In Brazil,Peter Robb,https://www.bol.com/be/nl/p/death-in-brazil/1001004002491253/,img/Albert Giraudstraat 28.jpg
Albert Giraudstraat 28,50.8707402,4.6982059,Het Oude Testament is niet zo oud,Luc Geysels,No link found,img/Albert Giraudstraat 28.jpg
Albert Giraudstraat 28,50.8707402,4.6982059,Der Unschuldige Morder,Mattias Edvardsson,https://www.bol.com/be/nl/p/der-unschuldige-morder/9300000016577696/,img/Albert Giraudstraat 28.jpg
Albert Giraudstraat 28,50.8707402,4.6982059,"Love, Medicine & Miracles",Bernie S. Siegel,https://www.bol.com/be/nl/p/love-medicine-and-miracles/9200000014627019/,img/Albert Giraudstraat 28.jpg
Albert Giraudstraat 28,50.8707402,4.6982059,Ethiek en gezondheidszorg,Paul Sporken,https://www.bol.com/be/nl/p/ethiek-en-gezondheidszorg/1001004005082926/,img/Albert Giraudstraat 28.jpg
Albert Giraudstraat 28,50.8707402,4.6982059,The Cardinal of the Kremlin,Tom Clancy,https://www.bol.com/be/nl/p/the-cardinal-of-the-kremlin/9200000011441866/,img/Albert Giraudstraat 28.jpg
Albert Giraudstraat 28,50.8707402,4.6982059,The Last Family in England,Matt Haig,https://www.bol.com/be/nl/p/the-last-family-in-england/9200000087005081/,img/Albert Giraudstraat 28.jpg
Weldadigheidsstraat 74,50.8711167,4.7010392,Een Overval in de Lucht,Willy van der Heide,https://www.bol.com/be/nl/p/bob-evers-15-een-overval-in-de-lucht/9200000040943909/,img/Weldadigheidsstraat 74.jpg
Weldadigheidsstraat 74,50.8711167,4.7010392,Het Beste Boek,John Grisham,https://www.bol.com/be/nl/p/the-exchange/9300000152261913/,img/Weldadigheidsstraat 74.jpg
Weldadigheidsstraat 74,50.8711167,4.7010392,De Huurder,Roland Topor,https://www.bol.com/be/nl/p/huurder/9200000048669852/,img/Weldadigheidsstraat 74.jpg
Weldadigheidsstraat 74,50.8711167,4.7010392,Dochter van de dageraad,Pauline Gedge,https://www.bol.com/be/nl/p/dochter-van-de-dageraad-pauline-gedge/1001004005090857/,img/Weldadigheidsstraat 74.jpg
Weldadigheidsstraat 74,50.8711167,4.7010392,Robbert Jan en het Geheimzinnige Kasteel,Enid Blyton,https://www.bol.com/be/nl/p/robbert-jan-en-het-geheimzinnige-kasteel/1001004005119042/,img/Weldadigheidsstraat 74.jpg
Weldadigheidsstraat 74,50.8711167,4.7010392,Entre mes mains le bonheur se faufile,Agn¨¨s Martin-Lugand,No link found,img/Weldadigheidsstraat 74.jpg
Weldadigheidsstraat 74,50.8711167,4.7010392,Mariage ¨¤ Manhattan,Nora Roberts ,https://www.bol.com/be/nl/p/la-saga-des-stanislaski-6-mariage-a-manhattan/9200000034442348/,img/Weldadigheidsstraat 74.jpg
Weldadigheidsstraat 74,50.8711167,4.7010392,De Grote Heer,Cor Ria Leeman,https://www.bol.com/be/nl/p/de-grote-heer/1001004005168838/,img/Weldadigheidsstraat 74.jpg
Weldadigheidsstraat 74,50.8711167,4.7010392,Springstof,Liza Marklund,https://www.bol.com/be/nl/p/liza-marklund-s-springstof/9200000028100166/,img/Weldadigheidsstraat 74.jpg
Weldadigheidsstraat 74,50.8711167,4.7010392,Timoe,Paul Kustermans,https://www.bol.com/be/nl/p/timoe/666881446/,img/Weldadigheidsstraat 74.jpg
Weldadigheidsstraat 74,50.8711167,4.7010392,Wraak van de jakhals,Jo Pestum,https://www.bol.com/be/nl/p/wraak-van-de-jakhals/1001004005153748/,img/Weldadigheidsstraat 74.jpg
Weldadigheidsstraat 74,50.8711167,4.7010392,Het Lege Dagboek,Susan Gates,https://www.bol.com/be/nl/p/het-lege-dagboek/666866979/,img/Weldadigheidsstraat 74.jpg
Weldadigheidsstraat 74,50.8711167,4.7010392,De Brief,Barend de Graaff,https://www.bol.com/be/nl/p/het-geslacht-van-garderen/9200000116077958/,img/Weldadigheidsstraat 74.jpg
Weldadigheidsstraat 74,50.8711167,4.7010392,De rubberjager,R.H. Schoemans,https://www.bol.com/be/nl/p/verloren-in-de-woestijn/1001004001524391/,img/Weldadigheidsstraat 74.jpg
Frederik Lintsstraat 48,50.8732159,4.7029886,Inbreuk,Dick Francis,https://www.bol.com/be/nl/p/dick-francis-mysteries-import/9300000093258702/,img/Frederik Lintsstraat 48.jpg
Frederik Lintsstraat 48,50.8732159,4.7029886,Juffrouw Jones uit Brightstead ,Jan H. Eekhout,No link found,img/Frederik Lintsstraat 48.jpg
Frederik Lintsstraat 48,50.8732159,4.7029886,Wij Amuseren ons Kapot,Neil Postman,https://www.bol.com/be/nl/p/wij-amuseren-ons-kapot/1001004005153166/,img/Frederik Lintsstraat 48.jpg
Frederik Lintsstraat 48,50.8732159,4.7029886,De Schrik Van De Imbosch,Pim Pandoer,https://www.bol.com/be/nl/p/pim-pandoer-de-schrik-van-de-imbosch/9200000048568803/,img/Frederik Lintsstraat 48.jpg
Frederik Lintsstraat 48,50.8732159,4.7029886,Mik heeft de hik,Agnes Verboven,https://www.bol.com/be/nl/p/mik-heeft-de-hik/666824989/,img/Frederik Lintsstraat 48.jpg
Frederik Lintsstraat 48,50.8732159,4.7029886,Pavillon Rouge,Laura Whetter,No link found,img/Frederik Lintsstraat 48.jpg
Frederik Lintsstraat 48,50.8732159,4.7029886,Die andere Torn,Gil Vander Heyden,https://www.bol.com/be/nl/p/die-andere-torn-g-van-der-heyden/666881473/,img/Frederik Lintsstraat 48.jpg
Dekenstraat 6,50.8740725,4.7083282,Brieven aan Miriam,Heuckelom,https://www.bol.com/be/nl/p/brieven-aan-miriam/1001004001521215/,img/Dekenstraat 6.jpg
Dekenstraat 6,50.8740725,4.7083282,In de greep van de Octopus,Henri van der Zee,https://www.bol.com/be/nl/p/in-de-greep-van-de-octopus/1001004001549251/,img/Dekenstraat 6.jpg
Dekenstraat 6,50.8740725,4.7083282,Keys to Management,David Cotton,https://www.bol.com/be/nl/p/keys-to-management-paper/1001004002880646/,img/Dekenstraat 6.jpg
Groefstraat 2,50.8796268,4.6850172,Kitty Ontdekt een Geheim,Nel Schutteva¨ºr-Velthuys,No link found,img/Groefstraat 2.jpg
Groefstraat 2,50.8796268,4.6850172,Taaier Dan een Husky,Ranulph Fiennes,https://www.bol.com/be/nl/p/taaier-dan-een-husky/1001004001531737/,img/Groefstraat 2.jpg
Groefstraat 2,50.8796268,4.6850172,Het Verhaal van Kyra,Jan Ruysbergh,https://www.bol.com/be/nl/p/d5r-4-het-verhaal-van-kyra/9200000054623783/,img/Groefstraat 2.jpg
Groefstraat 2,50.8796268,4.6850172,Villa Vintage,Isabel Wolff,https://www.bol.com/be/nl/p/villa-vintage/1001004006831922/,img/Groefstraat 2.jpg
Groefstraat 2,50.8796268,4.6850172,Heresy,S. J. Parris,https://www.bol.com/be/nl/p/heresy/1001004010979230/,img/Groefstraat 2.jpg
Groefstraat 2,50.8796268,4.6850172,70 Recepten voor 4 Seizoenen,Eva de Winter,https://www.bol.com/be/nl/p/70-recepten-voor-4-seizoenen-eva-de-winter/9200000048512466/,img/Groefstraat 2.jpg
Groefstraat 2,50.8796268,4.6850172,Stijlfolle Keukens,Bert De Pau,https://www.bol.com/be/nl/p/stijlvolle-keukens-2/9200000005563567/,img/Groefstraat 2.jpg
Groefstraat 2,50.8796268,4.6850172,Woninginrichting,Test Aankoop,https://www.bol.com/be/nl/p/gold-collagen-multidose-1-maand/9300000130444022/,img/Groefstraat 2.jpg
Groefstraat 2,50.8796268,4.6850172,Martin Ghay Uit Naam Van Al De Mijnen,Martin Gray,https://www.bol.com/be/nl/p/uit-naam-van-al-de-mijnen/9200000049545491/,img/Groefstraat 2.jpg
Groefstraat 2,50.8796268,4.6850172,Zalige Salades,Lionel Martinez,https://www.bol.com/be/nl/p/zalige-salades/1001004005138051/,img/Groefstraat 2.jpg
Groefstraat 2,50.8796268,4.6850172,Cirkel Van Het Kwaad,Wilbur Smith,https://www.bol.com/be/nl/p/hector-cross-2-cirkel-van-het-kwaad/9200000011870853/,img/Groefstraat 2.jpg
Groefstraat 2,50.8796268,4.6850172,25 Gorgeous Sweaters for the Brand-New Knitter,Catherine Ham,https://www.bol.com/be/nl/p/25-gorgeous-sweaters-for-the-brand-new-knitter/1001004002141254/,img/Groefstraat 2.jpg
Groefstraat 2,50.8796268,4.6850172,Wegwijs in Wijn 2016,Test Aankoop,https://www.bol.com/be/nl/p/wegwijs-in-wijn-speciaal-dossier-chardonnay-uit-de-nieuwe-wereld-2013/9200000049048549/,img/Groefstraat 2.jpg
Groefstraat 2,50.8796268,4.6850172,Politie,Jo Nesb?,https://www.bol.com/be/nl/p/harry-hole-10-politie/9200000089684379/,img/Groefstraat 2.jpg
Groefstraat 2,50.8796268,4.6850172,Mamma Boe Op Zoek naar Thuis,Christian Ryltenius,https://www.bol.com/be/nl/p/mamma-boe-op-zoek-naar-thuis/9300000082805279/,img/Groefstraat 2.jpg
Groefstraat 2,50.8796268,4.6850172,The Book of Strange New Things,Michel Faber,https://www.bol.com/be/nl/p/the-book-of-strange-new-things/9200000025528786/,img/Groefstraat 2.jpg
Refugehof 9,50.8766245,4.6935976,Rivka,Femmetje De Wind,https://www.bol.com/be/nl/p/rivka/9200000049736303/,img/Refugehof 9.jpg
Refugehof 9,50.8766245,4.6935976,Nanda Roep en Hans Kuyper,Tanja en Douwe Verliefd,No link found,img/Refugehof 9.jpg
Refugehof 9,50.8766245,4.6935976,Het Wonder van St Bruno,Philippa Carr,No link found,img/Refugehof 9.jpg
Refugehof 9,50.8766245,4.6935976,Bel Ria,Sheila Burnford,https://www.bol.com/be/nl/p/bel-ria/9200000066610331/,img/Refugehof 9.jpg
Refugehof 9,50.8766245,4.6935976,Honingtranen,Nafisa Haji,https://www.bol.com/be/nl/p/honingtranen/1001004011270004/,img/Refugehof 9.jpg
Refugehof 9,50.8766245,4.6935976,In Handen Van De Vijand,Elizabeth George,https://www.bol.com/be/nl/p/in-handen-van-de-vijand-elizabeth-george/1001004005734978/,img/Refugehof 9.jpg
Refugehof 9,50.8766245,4.6935976,De Dyslectische-Hartenclub,Hanneke Hendrix,https://www.bol.com/be/nl/p/de-dyslectische-hartenclub/9200000025959641/,img/Refugehof 9.jpg
Refugehof 9,50.8766245,4.6935976,Geloof Hoop Liefde,Kathryn Spink,https://www.bol.com/be/nl/p/geloof-hoop-liefde-leven-en-werken-van-moeder-teresa/666817453/,img/Refugehof 9.jpg
Refugehof 9,50.8766245,4.6935976,Morgen Ben Ik De Bruid,Kirsten Sawyer,https://www.bol.com/be/nl/p/morgen-ben-ik-de-bruid/1001004006191099/,img/Refugehof 9.jpg
Refugehof 9,50.8766245,4.6935976,Focus!,Leo Babauta,https://www.bol.com/be/nl/p/focus/1001004006847308/,img/Refugehof 9.jpg
Refugehof 9,50.8766245,4.6935976,Ti?p Th? Tr?c Tuy?n Th?ng Minh,Alex Blyth,No link found,img/Refugehof 9.jpg
Refugehof 9,50.8766245,4.6935976,Optimaal Gezond in 8 Weken,Andrew Weil,https://www.bol.com/be/nl/p/optimaal-gezond-in-8-weken/666829277/,img/Refugehof 9.jpg
Refugehof 9,50.8766245,4.6935976,Sue Grafton L Staat voor Leugens,Sue Grafton,https://www.bol.com/be/nl/p/l-staat-voor-leugens/666774857/,img/Refugehof 9.jpg
Refugehof 9,50.8766245,4.6935976,Les Vivants et les Morts,Gerard Mordillat,https://www.bol.com/be/nl/p/les-vivants-et-les-morts-prix-rtl-lire-2005/9200000033716957/,img/Refugehof 9.jpg
Refugehof 9,50.8766245,4.6935976,Leren Kiezen / Kiezen Leren 04 Balans,Frans Meiers,No link found,img/Refugehof 9.jpg
Refugehof 9,50.8766245,4.6935976,Baccara,Jacqueline Diamond,https://www.bol.com/be/nl/p/baccara-extra-32-baccara-extra-band-32/9300000158779094/,img/Refugehof 9.jpg
Redingenstraat 90,50.872708,4.6944934,Harten Is Troef,Louis Verbeeck,https://www.bol.com/be/nl/p/harten-is-troef-louis-verbeeck/1001004001546624/,img/Redingenstraat 90.jpg
Redingenstraat 90,50.872708,4.6944934,Over De Bril Heen,Louis Verbeeck,https://www.bol.com/be/nl/p/over-de-bril-heen/1001004005165488/,img/Redingenstraat 90.jpg
Redingenstraat 90,50.872708,4.6944934,Baby-Gami,Andrea Sarvady,https://www.bol.com/be/nl/p/baby-gami/1001004002450471/,img/Redingenstraat 90.jpg
Redingenstraat 90,50.872708,4.6944934,Se?ora Honingzoet,Fanny Buitrago,No link found,img/Redingenstraat 90.jpg
Redingenstraat 90,50.872708,4.6944934,De Kleine Lord,Frances Hodgson Burnett,https://www.bol.com/be/nl/p/de-kleine-lord/9300000167534720/,img/Redingenstraat 90.jpg
Redingenstraat 90,50.872708,4.6944934,Visuele Leidraad XML,Vander Veer Mengle,No link found,img/Redingenstraat 90.jpg
Redingenstraat 90,50.872708,4.6944934,Gezonde Voeding voor Uw Baby Heerlyk Vers en Zelfgemaakt,Anne Iburg,No link found,img/Redingenstraat 90.jpg
Redingenstraat 90,50.872708,4.6944934,Baby's Die Veel Huilen,Sheila Kitzinger,https://www.bol.com/be/nl/p/baby-s-die-veel-huilen/1001004001507830/,img/Redingenstraat 90.jpg
Redingenstraat 90,50.872708,4.6944934,Onder De Tropenzon,Johan Fabricius,https://www.bol.com/be/nl/p/toontje-poland-onder-de-tropenzon/1001004005151703/,img/Redingenstraat 90.jpg
Redingenstraat 90,50.872708,4.6944934,Vele Hemels Boven De Zevende,Griet Op de Beeck,https://www.bol.com/be/nl/p/vele-hemels-boven-de-zevende/9200000095471489/,img/Redingenstraat 90.jpg
Redingenstraat 90,50.872708,4.6944934,Damiano,R. A. MacAvoy,https://www.bol.com/be/nl/p/damiano/9200000034993683/,img/Redingenstraat 90.jpg
Quinten Metsysplein 3,50.876462,4.7122765,Null Gleich Eins,Arne Dahl,https://www.bol.com/be/nl/p/null-gleich-eins/9300000147712591/,img/Quinten Metsysplein 3.jpg
Quinten Metsysplein 3,50.876462,4.7122765,Meester van de Zwarte Molen,Otfried Preussler,https://www.bol.com/be/nl/p/meester-van-de-zwarte-molen/666808118/,img/Quinten Metsysplein 3.jpg
Quinten Metsysplein 3,50.876462,4.7122765,Amerigo,Kees Putman,https://www.bol.com/be/nl/p/amerigo/1001004001653459/,img/Quinten Metsysplein 3.jpg
Quinten Metsysplein 3,50.876462,4.7122765,De Wraak van de Toeareg,J. J. Groenewrg,No link found,img/Quinten Metsysplein 3.jpg
Quinten Metsysplein 3,50.876462,4.7122765,Het Wonder van de Liefde,Aleen Leslie,No link found,img/Quinten Metsysplein 3.jpg
Quinten Metsysplein 3,50.876462,4.7122765,"So Long, Archie",Willi Heinrich,https://www.bol.com/be/nl/p/so-long-archie/9200000049539670/,img/Quinten Metsysplein 3.jpg
Koetsweg 45,50.8747052,4.7338468,La Transicion,El Pais,https://www.bol.com/be/nl/p/en-el-pais-de-la-nube-blanca/9200000110978067/,img/Koetsweg 45.jpg
Koetsweg 45,50.8747052,4.7338468,Boze Tongen,Tom Lanoye,https://www.bol.com/be/nl/p/boze-tongen/1001004001571421/,img/Koetsweg 45.jpg
Koetsweg 45,50.8747052,4.7338468,Industriefotografie Schriftenreihe,Reinhard Matz,No link found,img/Koetsweg 45.jpg
Koetsweg 45,50.8747052,4.7338468,Thomas Bimbam,Robine Clignett,https://www.bol.com/be/nl/p/thomas-bimbam/1001004005086004/,img/Koetsweg 45.jpg
Koetsweg 45,50.8747052,4.7338468,Serge Moati,Dernieres Nouvelles de Tunis,No link found,img/Koetsweg 45.jpg
Koetsweg 45,50.8747052,4.7338468,Enterprise One-to-One,Don Peppers,https://www.bol.com/be/nl/p/enterprise-one-to-one/666851322/,img/Koetsweg 45.jpg
Koetsweg 45,50.8747052,4.7338468,Bronnenboek Internationaal Recht,Jan Wouters,https://www.bol.com/be/nl/p/internationaal-recht-in-kort-bestek/9300000008452257/,img/Koetsweg 45.jpg
Koetsweg 45,50.8747052,4.7338468,Apolloon Tussen Zwart en Wit,Albert van Hoeck,No link found,img/Koetsweg 45.jpg
Koetsweg 45,50.8747052,4.7338468,Zeg Ja Tegen de Liefde,Dr. J. Z. Baruch,No link found,img/Koetsweg 45.jpg
Koetsweg 45,50.8747052,4.7338468,The Shadow of the Lynx,Victoria Hoit,https://www.bol.com/be/nl/p/the-shadow-of-the-lynx/9200000035027132/,img/Koetsweg 45.jpg
Koetsweg 45,50.8747052,4.7338468,Fear is the Key,Alistair MacLean,https://www.bol.com/be/nl/p/fear-is-the-key/9300000168660360/,img/Koetsweg 45.jpg
Koetsweg 45,50.8747052,4.7338468,Optionen-Handel,Dr. Gregor Bauer,No link found,img/Koetsweg 45.jpg
Koetsweg 45,50.8747052,4.7338468,Omnibus Drie Romans over Stewardessen en Piloten,Constance M. White,https://www.bol.com/be/nl/p/omnibus-drie-romans-over-stewardessen-en-piloten/9200000097464906/,img/Koetsweg 45.jpg
Koetsweg 45,50.8747052,4.7338468,Anton,Schreiber-Wicke,https://www.bol.com/be/nl/p/het-toverboek-van-anton/1001004001555668/,img/Koetsweg 45.jpg
Koetsweg 45,50.8747052,4.7338468,Juultje Neemt Afscheid van School,Anneke Bloemen,No link found,img/Koetsweg 45.jpg
Koetsweg 45,50.8747052,4.7338468,Blondekoning,Henri van Daele,https://www.bol.com/be/nl/p/glamp-of-hoe-paddenwratje-kabouter/1001004001986235/,img/Koetsweg 45.jpg
Koetsweg 45,50.8747052,4.7338468,Sneeuwlucht,Marleen Nelen,https://www.bol.com/be/nl/p/alles-wat-licht-is/9200000108614066/,img/Koetsweg 45.jpg
Albert Stainierstraat 2,50.8714656,4.7235203,Vergrendelde Stad,Rene Struelens,https://www.bol.com/be/nl/p/vergrendelde-stad/9200000049435831/,img/Albert Stainierstraat 2.jpg
Albert Stainierstraat 2,50.8714656,4.7235203,S Nachts,Arnaud Roi,https://www.bol.com/be/nl/p/s-nachts/1001004010213896/,img/Albert Stainierstraat 2.jpg
Albert Stainierstraat 2,50.8714656,4.7235203,Tournee Generale De Geheimen van het Belgische Bier,Geert Degrande,https://www.bol.com/be/nl/p/tournee-generale/1001004006829177/,img/Albert Stainierstraat 2.jpg
Albert Stainierstraat 2,50.8714656,4.7235203,Sam Smith,Jonas Boets,https://www.bol.com/be/nl/p/sam-smith-spion-ontvoerd/1001004010949192/,img/Albert Stainierstraat 2.jpg
Albert Stainierstraat 2,50.8714656,4.7235203,Offenboek Europees Rijbewijs,Kol. Fr. Paesschierssens,No link found,img/Albert Stainierstraat 2.jpg
Albert Stainierstraat 2,50.8714656,4.7235203,Cidou op het Platteland,De Zwaluwen,No link found,img/Albert Stainierstraat 2.jpg
Albert Stainierstraat 2,50.8714656,4.7235203,Facebook Verfilmd als The Social Network,Ben Mezrich,No link found,img/Albert Stainierstraat 2.jpg
Albert Stainierstraat 2,50.8714656,4.7235203,Bol Mag Niet Mee,Yan Gout,No link found,img/Albert Stainierstraat 2.jpg
Albert Stainierstraat 2,50.8714656,4.7235203,Flavours That Connect Multifaith Recipe Book,Maryana Hnyp,No link found,img/Albert Stainierstraat 2.jpg
Albert Stainierstraat 2,50.8714656,4.7235203,Sprietje Een en Sprietje Twee,Leo Salien,No link found,img/Albert Stainierstraat 2.jpg
Albert Stainierstraat 2,50.8714656,4.7235203,Het Regenmeisje,A. van Nerum,No link found,img/Albert Stainierstraat 2.jpg
Albert Stainierstraat 2,50.8714656,4.7235203,Tik Tak Speelboek,Mil Lenssens,https://www.bol.com/be/nl/p/children-tik-tak-box-2/9200000050318011/,img/Albert Stainierstraat 2.jpg
Albert Stainierstraat 2,50.8714656,4.7235203,Tiny op de Boerderij,Gijs Haag,https://www.bol.com/be/nl/p/tiny-op-de-boerderij/9200000049352709/,img/Albert Stainierstraat 2.jpg
Albert Stainierstraat 2,50.8714656,4.7235203,Willis Het Doet Er Niet Toe Hoe,Daan Remmerts de Vries,https://www.bol.com/be/nl/p/willis/666838833/,img/Albert Stainierstraat 2.jpg
Albert Stainierstraat 2,50.8714656,4.7235203,Hoe Brommer Hoe Liever,Frits Vekemans,No link found,img/Albert Stainierstraat 2.jpg
Albert Stainierstraat 2,50.8714656,4.7235203,Een Boekje Over Troost van Spits,Veronique Puts,No link found,img/Albert Stainierstraat 2.jpg
Albert Stainierstraat 2,50.8714656,4.7235203,Geschiedenis van de Filosofie I,H. F. Storig,No link found,img/Albert Stainierstraat 2.jpg
Albert Stainierstraat 2,50.8714656,4.7235203,Geschiedenis van de Filosofie II,H. F. Storig,No link found,img/Albert Stainierstraat 2.jpg
Albert Stainierstraat 2,50.8714656,4.7235203,100 Recepten: Evenwichting en Niet Duur,Vereniging voor Kankerbestrijding,No link found,img/Albert Stainierstraat 2.jpg
Albert Stainierstraat 2,50.8714656,4.7235203,100 Recepten: Gezond en Lekker,Vereniging voor Kankerbestrijding,No link found,img/Albert Stainierstraat 2.jpg
Albert Stainierstraat 2,50.8714656,4.7235203,N of M,Agatha Christie,https://www.bol.com/be/nl/p/n-or-m/9200000090838680/,img/Albert Stainierstraat 2.jpg
Albert Stainierstraat 2,50.8714656,4.7235203,Moord in de Orient-Express,Agatha Christie,https://www.bol.com/be/nl/p/moord-in-de-orient-expres-moord-op-de-nijl/1001004005945772/,img/Albert Stainierstraat 2.jpg
Albert Stainierstraat 2,50.8714656,4.7235203,De Verliefde Butler,P. G. Wodehouse,https://www.bol.com/be/nl/p/verliefde-butler/9200000048892352/,img/Albert Stainierstraat 2.jpg
Albert Stainierstraat 2,50.8714656,4.7235203,Tantes Zijn Geen Heren,P. G. Wodehouse,No link found,img/Albert Stainierstraat 2.jpg
Albert Stainierstraat 2,50.8714656,4.7235203,Het Blazoen van de Woosters,P. G. Wodehouse,https://www.bol.com/be/nl/p/het-blazoen-van-de-woosters/1001004002621006/,img/Albert Stainierstraat 2.jpg
Zegelaan 29,50.8657374,4.7044391,Aller Tage Abend,Jenny Erpenbeck,https://www.bol.com/be/nl/p/aller-tage-abend/9200000078471425/,img/Zegelaan 29.jpg
Zegelaan 29,50.8657374,4.7044391,Fotofinish,Jac Toes,https://www.bol.com/be/nl/p/fotofinish/1001004004729826/,img/Zegelaan 29.jpg
Zegelaan 29,50.8657374,4.7044391,Een engel in een wrede wereld,Bradley,https://www.bol.com/be/nl/p/een-engel-in-een-wrede-wereld/666755845/,img/Zegelaan 29.jpg
Zegelaan 29,50.8657374,4.7044391,1.000.000 Puzzelwoorden,M. Sanders,https://www.bol.com/be/nl/p/1-000-000-puzzelwoorden-voor-al-uw-puzzelproblemen/9200000128383066/,img/Zegelaan 29.jpg
Zegelaan 29,50.8657374,4.7044391,Memoirs of a Geisha,Arthur Golden,https://www.bol.com/be/nl/p/memoirs-of-a-geisha/1001004005850979/,img/Zegelaan 29.jpg
Zegelaan 29,50.8657374,4.7044391,Nostradamus 1999: Who Will Survive?,Stefan Paulus,https://www.bol.com/be/nl/p/nostradamus-1999/1001004001085220/,img/Zegelaan 29.jpg
Zegelaan 29,50.8657374,4.7044391,Moni,Ka-Tsetnik 135633,https://www.bol.com/be/nl/p/moni-daniella/9200000009713666/,img/Zegelaan 29.jpg
Zegelaan 29,50.8657374,4.7044391,Super puzzelwoordenboek,Baas Harmelink,https://www.bol.com/be/nl/p/super-puzzelwoordenboek/9200000048881015/,img/Zegelaan 29.jpg
Zegelaan 29,50.8657374,4.7044391,Warten,Ha jin,https://www.bol.com/be/nl/p/warten/1001004008723156/,img/Zegelaan 29.jpg
Zegelaan 29,50.8657374,4.7044391,Carne tr¨¦mula,Ruth Rendell,No link found,img/Zegelaan 29.jpg
Zegelaan 29,50.8657374,4.7044391,Lauter Reizende Alte Damen,Agatha Christie ,https://www.bol.com/be/nl/p/lauter-reizende-alte-damen-3-cds/1001004008219390/,img/Zegelaan 29.jpg
Zegelaan 29,50.8657374,4.7044391,Mijn Horizontale Leven,Chelsea Handler,https://www.bol.com/be/nl/p/mijn-horizontale-leven/1001004002410194/,img/Zegelaan 29.jpg
Zegelaan 29,50.8657374,4.7044391,Gekwetste vogels,T. Franssen,https://www.bol.com/be/nl/p/gekwetste-vogels-t-franssen/1001004001539637/,img/Zegelaan 29.jpg
Zegelaan 29,50.8657374,4.7044391,The Secret Dreamworld of a Shopaholic,Sophie Kinsella,https://www.bol.com/be/nl/p/the-secret-dreamworld-of-a-shopaholic/9200000001984079/,img/Zegelaan 29.jpg
Zegelaan 29,50.8657374,4.7044391,Death at La Fenice,Donna Leon,https://www.bol.com/be/nl/p/a-commissario-brunetti-mystery-death-at-la-fenice/9200000046810259/,img/Zegelaan 29.jpg
Zegelaan 29,50.8657374,4.7044391,JEU DE JUMELLES,JAN ANDERSEN,No link found,img/Zegelaan 29.jpg
Zegelaan 29,50.8657374,4.7044391,Hotel Habbekrats,Rik Peters,https://www.bol.com/be/nl/p/hotel-habbekrats-mysterious-cabbage-murder/9300000096669889/,img/Zegelaan 29.jpg
Zwaluwenlaan 45,50.8589452,4.6915269,france 4 holiday guide,france naturisme,No link found,img/Zwaluwenlaan 45.jpg
Zwaluwenlaan 45,50.8589452,4.6915269,De Wens der Eeuwen,Ellen G White,https://www.bol.com/be/nl/p/wens-der-eeuwen/9300000139731107/,img/Zwaluwenlaan 45.jpg
Zwaluwenlaan 45,50.8589452,4.6915269,DE LAATSTE BRUID,Beverly Lewis,https://www.bol.com/be/nl/p/de-laatste-bruid/9200000031374371/,img/Zwaluwenlaan 45.jpg
Zwaluwenlaan 45,50.8589452,4.6915269,Claudia kookt buiten,Claudia Allemeersch,https://www.bol.com/be/nl/p/claudia-kookt-buiten/1001004011009010/,img/Zwaluwenlaan 45.jpg
Zwaluwenlaan 45,50.8589452,4.6915269,Handboek van de puzzelaar,H.C. van den Welberg,https://www.bol.com/be/nl/p/handboek-van-de-puzzelaar/666829387/,img/Zwaluwenlaan 45.jpg
Zwaluwenlaan 45,50.8589452,4.6915269,Verloren,Daniel mendelsohn,https://www.bol.com/be/nl/p/verloren/9300000154116040/,img/Zwaluwenlaan 45.jpg
Zwaluwenlaan 45,50.8589452,4.6915269,"Dag Manon, daaaag",Ellen Beukema,https://www.bol.com/be/nl/p/dag-manon-daaaag/1001004002617982/,img/Zwaluwenlaan 45.jpg
Zwaluwenlaan 45,50.8589452,4.6915269,The World of Suzie Wong,Richard Mason,https://www.bol.com/be/nl/p/the-world-of-suzie-wong/1001004011597739/,img/Zwaluwenlaan 45.jpg
Zwaluwenlaan 45,50.8589452,4.6915269,Talking to heaven,James Van Praagh,https://www.bol.com/be/nl/p/talking-to-heaven/9200000110944264/,img/Zwaluwenlaan 45.jpg
Bronlaan 2,50.8630829,4.707924,Pietje puk weet raad,Henri Arnoldus,https://www.bol.com/be/nl/p/pietje-puk-weet-raad/666748130/,img/Bronlaan 2.jpg
Bronlaan 2,50.8630829,4.707924,Pietje Puk is de baas,Henri Arnoldus,https://www.bol.com/be/nl/p/pietje-puk-is-de-baas/666748131/,img/Bronlaan 2.jpg
Bronlaan 2,50.8630829,4.707924,Pietje Puk ,Henri Arnoldus,https://www.bol.com/be/nl/p/pietje-puk-weet-raad/666748130/,img/Bronlaan 2.jpg
Bronlaan 2,50.8630829,4.707924,Pietje Puk is de baas,Henri Arnoldus,https://www.bol.com/be/nl/p/pietje-puk-gaat-op-reis-is-de-baas/1001004001304290/,img/Bronlaan 2.jpg
Bronlaan 2,50.8630829,4.707924,Pietje Puk wordt brandweerman,Henri Arnoldus,https://www.bol.com/be/nl/p/pietje-puk-heeft-gelijk-wordt-schaatskampioen/1001004002131354/,img/Bronlaan 2.jpg
Bronlaan 2,50.8630829,4.707924,Pietje Puk gaat op reis,Henri Arnoldus,https://www.bol.com/be/nl/p/pietje-puk-heeft-geluk-gaat-op-reis/9200000108690650/,img/Bronlaan 2.jpg
Bronlaan 2,50.8630829,4.707924,Pietje Puk en de winkeldief,Henri Arnoldus,https://www.bol.com/be/nl/p/pietje-puk-en-de-winkeldief/666748144/,img/Bronlaan 2.jpg
Bronlaan 2,50.8630829,4.707924,Pietje Puk wordt boswachter,Henri Arnoldus,https://www.bol.com/be/nl/p/pietje-puk-wordt-boswachter/666748129/,img/Bronlaan 2.jpg
Bronlaan 2,50.8630829,4.707924,Pietje Puk viert feest,Henri Arnoldus,No link found,img/Bronlaan 2.jpg
Bronlaan 2,50.8630829,4.707924,Pietje Puk wordt agent ,Henri Arnoldus,https://www.bol.com/be/nl/p/pietje-puk-wordt-agent/666748124/,img/Bronlaan 2.jpg
Bronlaan 2,50.8630829,4.707924,De fietskuren van Nicole en Ingrid,Ingrid De Wilde,https://www.bol.com/be/nl/p/de-fietskuren-van-nicole-en-ingrid/1001004001565454/,img/Bronlaan 2.jpg
Bronlaan 2,50.8630829,4.707924,Dief,Vivien Alcock,https://www.bol.com/be/nl/p/dief/1001004001517297/,img/Bronlaan 2.jpg
Bronlaan 2,50.8630829,4.707924,Villa Serena,Domenica de Rosa,https://www.bol.com/be/nl/p/villa-serena/9200000095240489/,img/Bronlaan 2.jpg
Bronlaan 2,50.8630829,4.707924,Stemmen voor de stad. Perspectieven op stedelijk sociaal werk. ,Odisee,No link found,img/Bronlaan 2.jpg
Bronlaan 2,50.8630829,4.707924,Order of Darkness  Changeling,Philippa Gregory,https://www.bol.com/be/nl/p/order-of-darkness-changeling/9200000033149187/,img/Bronlaan 2.jpg
Bronlaan 2,50.8630829,4.707924,Hans en Grietje,Deltas,https://www.bol.com/be/nl/p/er-was-eens-assepoester-pinokkio-hans-grietje/9300000005892247/,img/Bronlaan 2.jpg
Bronlaan 2,50.8630829,4.707924,Power Brands,Hajo Riesenbeck,https://www.bol.com/be/nl/p/power-brands/1001004008726553/,img/Bronlaan 2.jpg
Bronlaan 2,50.8630829,4.707924,Koning voetbal ,Ren¨¦ Struelens,No link found,img/Bronlaan 2.jpg
Bronlaan 2,50.8630829,4.707924,Wispel en kwispel,G. Thijs,https://www.bol.com/be/nl/p/wispel-en-kwispel/1001004005160724/,img/Bronlaan 2.jpg
Bronlaan 2,50.8630829,4.707924,Sprookjeskaravaan,Vazsonyi,https://www.bol.com/be/nl/p/sprookjeskaravaan/1001004005121320/,img/Bronlaan 2.jpg
Philipslaan 84,50.8648368,4.7237317,Tuinieren en verzorging van kamerplanten,Divers,https://www.bol.com/be/nl/p/plant/9300000044133918/,img/Philipslaan 84.jpg
Philipslaan 84,50.8648368,4.7237317,The Hangman's Song,James Oswald,https://www.bol.com/be/nl/p/the-hangman-s-song/9200000030471831/,img/Philipslaan 84.jpg
Philipslaan 84,50.8648368,4.7237317,The Kiss,Kathryn Harrison,https://www.bol.com/be/nl/p/the-kiss/9200000031598986/,img/Philipslaan 84.jpg
Philipslaan 84,50.8648368,4.7237317,The Almost Moon,Alice Sebold,https://www.bol.com/be/nl/p/the-almost-moon/9200000001535952/,img/Philipslaan 84.jpg
Philipslaan 84,50.8648368,4.7237317,Madame Curie,¨¨ve Curie,https://www.bol.com/be/nl/p/madame-curie/1001004008776670/,img/Philipslaan 84.jpg
Philipslaan 84,50.8648368,4.7237317,Brandpunt,Lee Child,https://www.bol.com/be/nl/p/jack-reacher-5-brandpunt/9200000039671829/,img/Philipslaan 84.jpg
Philipslaan 84,50.8648368,4.7237317,Oude Schuld,John Matthews,https://www.bol.com/be/nl/p/oude-schuld/666870440/,img/Philipslaan 84.jpg
Philipslaan 84,50.8648368,4.7237317,De ivoren olifant,Nerea Riesco,https://www.bol.com/be/nl/p/de-ivoren-olifant/1001004011557023/,img/Philipslaan 84.jpg
Philipslaan 84,50.8648368,4.7237317,"Flik, de eekhoorn",Pierre Coran,No link found,img/Philipslaan 84.jpg
Sparrendreef 15,50.8584101,4.7021699,Eerste dag,David Nicholls,https://www.bol.com/be/nl/p/de-eerste-dag/1001004011580423/,img/Sparrendreef 15.jpg
Sparrendreef 15,50.8584101,4.7021699,Ontrouw,Christa von Bernuth,https://www.bol.com/be/nl/p/von-bernuth-trilogie/1001004005989379/,img/Sparrendreef 15.jpg
Sparrendreef 15,50.8584101,4.7021699,Jonah Colley 1 - Vermist,Simon Beckett,https://www.bol.com/be/nl/p/jonah-colley-1-vermist/9300000082681891/,img/Sparrendreef 15.jpg
Sparrendreef 15,50.8584101,4.7021699,Room 13,Robert Swindells,https://www.bol.com/be/nl/p/room-13/1001004011777004/,img/Sparrendreef 15.jpg
Sparrendreef 15,50.8584101,4.7021699,Lijdensweg,Peter Robinson,https://www.bol.com/be/nl/p/lijdensweg/1001004010953286/,img/Sparrendreef 15.jpg
Sparrendreef 15,50.8584101,4.7021699,Bloedschande,Sharon Bolton,https://www.bol.com/be/nl/p/bloedschande/9200000049587201/,img/Sparrendreef 15.jpg
Sparrendreef 15,50.8584101,4.7021699,Kind tussen vier vrouwen,Simon Vestdijk,https://www.bol.com/be/nl/p/kind-tussen-vier-vrouwen/1001004002504380/,img/Sparrendreef 15.jpg
Sparrendreef 15,50.8584101,4.7021699,De terugkeer,Sandra Novack,https://www.bol.com/be/nl/p/de-terugkeer-sandra-novack/1001004006515886/,img/Sparrendreef 15.jpg
Sparrendreef 15,50.8584101,4.7021699,De reis om de wereld in 80 dagen,Jules Verne,https://www.bol.com/be/nl/p/jules-verne-de-reis-om-de-wereld-in-80-dagen/9200000050046104/,img/Sparrendreef 15.jpg
Sparrendreef 15,50.8584101,4.7021699,The Deer Hunter,E. M. Corder,https://www.bol.com/be/nl/p/love-songs/1000004000329757/,img/Sparrendreef 15.jpg
Sparrendreef 15,50.8584101,4.7021699,Schriftelijk rapporteren,H. de Boer,https://www.bol.com/be/nl/p/schriftelijk-rapporteren/1001004005092895/,img/Sparrendreef 15.jpg
Sparrendreef 15,50.8584101,4.7021699,Paspoort voor het geluk,Cavanna Betty,No link found,img/Sparrendreef 15.jpg
Sparrendreef 15,50.8584101,4.7021699,An Act of Treachery,Ann Widdecombe,https://www.bol.com/be/nl/p/an-act-of-treachery/9200000000055683/,img/Sparrendreef 15.jpg
Sparrendreef 15,50.8584101,4.7021699,Marcelo en de echte wereld,Francisco X. Stork,https://www.bol.com/be/nl/p/marcelo-en-de-echte-wereld/1001004007516441/,img/Sparrendreef 15.jpg
Sparrendreef 15,50.8584101,4.7021699,De eerste steen,Rom Molemaker,https://www.bol.com/be/nl/p/de-eerste-steen/1001004006515935/,img/Sparrendreef 15.jpg
Sparrendreef 15,50.8584101,4.7021699,Oorlog eindigt nooit,Roger Pieters,https://www.bol.com/be/nl/p/oorlog-eindigt-nooit-roger-pieters/9200000049039752/,img/Sparrendreef 15.jpg
Sparrendreef 15,50.8584101,4.7021699,Het geheim van de betoverde trap ,Holly Beth Walker,No link found,img/Sparrendreef 15.jpg
Sparrendreef 15,50.8584101,4.7021699,Zwarte gedachten,Dieter Lesage,https://www.bol.com/be/nl/p/zwarte-gedachten/666792600/,img/Sparrendreef 15.jpg
Sparrendreef 15,50.8584101,4.7021699,Uitvaren,Pascal De Duve,https://www.bol.com/be/nl/p/uitvaren/1001004005280730/,img/Sparrendreef 15.jpg
Hoveniersdreef 1,50.8639617,4.6929816,Grijs gebied,Marion Pauw,https://www.bol.com/be/nl/p/grijs-gebied-marion-pauw/9200000043137652/,img/Hoveniersdreef 1.jpg
Hoveniersdreef 1,50.8639617,4.6929816,Kannibalen in Rio,Ineke Holtwijk,https://www.bol.com/be/nl/p/kannibalen-in-rio/9200000051929595/,img/Hoveniersdreef 1.jpg
Hoveniersdreef 1,50.8639617,4.6929816,Ring van Takoe'ang,Ies van Bel,https://www.bol.com/be/nl/p/ring-van-takoe-ang/9200000048647129/,img/Hoveniersdreef 1.jpg
Hoveniersdreef 1,50.8639617,4.6929816,De gemeentegids,Marian Verbeek,https://www.bol.com/be/nl/p/de-blauwe-planeet-5-ex-8-werkschrift/1001004011011723/,img/Hoveniersdreef 1.jpg
Hoveniersdreef 1,50.8639617,4.6929816,De aansprakelijkheid van de lokale mandataris,Geert Vandenwijngaert,No link found,img/Hoveniersdreef 1.jpg
Hoveniersdreef 1,50.8639617,4.6929816,Doodsengel,Tami Hoag,https://www.bol.com/be/nl/p/doodsengel/1001004002488440/,img/Hoveniersdreef 1.jpg
Hoveniersdreef 1,50.8639617,4.6929816,Door,Wouter van der Horst,https://www.bol.com/be/nl/p/door/1001004002763907/,img/Hoveniersdreef 1.jpg
Hoveniersdreef 1,50.8639617,4.6929816,De spookmelodie,Mary Higgins Clark,https://www.bol.com/be/nl/p/de-spookmelodie/1001004005013756/,img/Hoveniersdreef 1.jpg
Hoveniersdreef 1,50.8639617,4.6929816,Zand In Mijn Beha,Jennifer L. Leo,https://www.bol.com/be/nl/p/zand-in-mijn-beha/1001004004732095/,img/Hoveniersdreef 1.jpg
Hoveniersdreef 1,50.8639617,4.6929816,Testament van taal,Nathan Juda,No link found,img/Hoveniersdreef 1.jpg
Hoveniersdreef 1,50.8639617,4.6929816,Mr. Chink van Hongkong,Edward Multon,No link found,img/Hoveniersdreef 1.jpg
Hoveniersdreef 1,50.8639617,4.6929816,Ontdekkingsreizen In De Liefde,Louise Wener,https://www.bol.com/be/nl/p/ontdekkingsreizen-in-de-liefde/1001004006208351/,img/Hoveniersdreef 1.jpg
Hoveniersdreef 1,50.8639617,4.6929816,Wenen om het verloren ik,A.R.M. Polspoel,https://www.bol.com/be/nl/p/wenen-om-het-verloren-ik/1001004001977474/,img/Hoveniersdreef 1.jpg
Hoveniersdreef 1,50.8639617,4.6929816,Ik Was Twaalf En Ik Fietste Naar School,Sabine Dardenne,https://www.bol.com/be/nl/p/ik-was-twaalf-en-ik-fietste-naar-school/1001004002381128/,img/Hoveniersdreef 1.jpg
Hoveniersdreef 1,50.8639617,4.6929816,"Luister, kleutertje... ",Nelly Johanna Kunst,No link found,img/Hoveniersdreef 1.jpg
Hoveniersdreef 1,50.8639617,4.6929816,Point Blank, Anthony Horowitz,https://www.bol.com/be/nl/p/the-alex-rider-collection/1001004006294892/,img/Hoveniersdreef 1.jpg